{
  "zipcode": [
    {
      "stat": "capital",
      "mnname": "Улаанбаатар",
      "name": "Ulaanbaatar",
      "year_established": 1942,
      "area": 4704.4,
      "population": 1539810,
      "density": 327,
      "zipcode": "11000",
      "sub_items": [
        {
          "mnname": "Багануур дүүрэг",
          "zipcode": "12000",
          "name": "Baganuur",
          "district": 5,
          "population": 25261,
          "area": 620.2,
          "density": 41.9,
          "stat": "district",
          "sub_items": [
            { "mnname": "Хэрлэн голын хөвөө-1", "zipcode": "12001" },
            { "mnname": "Улаан эрэг", "zipcode": "12002" },
            { "mnname": "Нарийн нуур", "zipcode": "12003" },
            { "mnname": "Нугийн тал", "zipcode": "12004" },
            { "mnname": "Тариан булаг-1", "zipcode": "12005" },
            { "mnname": "Тариан булаг-2", "zipcode": "12006" },
            { "mnname": "Хэрлэн голын хөвөө-2", "zipcode": "12007" },
            { "mnname": "Хүрмэнтийн хөндий", "zipcode": "12008" },
            { "mnname": "Дунд байдлаг", "zipcode": "12009" },
            { "mnname": "Талын толгой", "zipcode": "12010" },
            { "mnname": "Тогос уул", "zipcode": "12020" },
            { "mnname": "Их гүн", "zipcode": "12030" },
            { "mnname": "Хэрлэн", "zipcode": "12040" },
            { "mnname": "Бага гүн", "zipcode": "12050" },
            { "mnname": "Байдлаг", "zipcode": "12060" },
            { "mnname": "Нарийн", "zipcode": "12070" },
            { "mnname": "Рашаант", "zipcode": "12080" },
            { "mnname": "Наран хороолол-1", "zipcode": "12090" },
            { "mnname": "Наран хороолол-2", "zipcode": "12091" },
            { "mnname": "Залуус хэсэг", "zipcode": "12100" },
            { "mnname": "Хилчин", "zipcode": "12110" },
            { "mnname": "Жаргалант", "zipcode": "12120" },
            { "mnname": "Сургалтын задгай", "zipcode": "12130" },
            { "mnname": "Хуцаа", "zipcode": "12140" },
            { "mnname": "Үйлдвэрийн хэсэг-2", "zipcode": "12150" },
            { "mnname": "Үйлдвэрийн хэсэг-3", "zipcode": "12151" },
            { "mnname": "Замчин", "zipcode": "12160" },
            { "mnname": "Үйлдвэрийн хэсэг-1", "zipcode": "12170" },
            { "mnname": "Нүүрэнтэйн хөндий", "zipcode": "12171" },
            { "mnname": "Улаан ухаа", "zipcode": "12200" },
            { "mnname": "Нуур хороолол", "zipcode": "12210" },
            { "mnname": "Суурьшилгүй бүс", "zipcode": "12211" },
            { "mnname": "Суурьшилгүй бүс", "zipcode": "12212" },
            { "mnname": "Булагтай", "zipcode": "12213" }
          ]
        },
        {
          "mnname": "Багахангай дүүрэг",
          "name": "Bagakhangai",
          "district": 2,
          "population_2020": 3776,
          "area": 140.0,
          "density": 27.6,
          "zipcode": "12300",
          "stat": "district",
          "sub_items": [
            { "mnname": "Хангайн хөндий", "zipcode": "12301" },
            { "mnname": "Суурьшилгүй бүс", "zipcode": "12302" },
            { "mnname": "Суурьшилгүй бүс", "zipcode": "12305" },
            { "mnname": "Єртєєний хэсэг", "zipcode": "12310" },
            { "mnname": "Бор үзүүр", "zipcode": "12311" },
            { "mnname": "Нуур", "zipcode": "12312" },
            { "mnname": "Цайдам", "zipcode": "12313" },
            { "mnname": "Замчин", "zipcode": "12314" },
            { "mnname": "Аеродромын хэсэг", "zipcode": "12320" },
            { "mnname": "Єндєртолгой", "zipcode": "12330" },
            { "mnname": "Үйлдвэрийн хэсэг", "zipcode": "12340" },
            { "mnname": "Алтгана", "zipcode": "12350" },
            { "mnname": "Үнэгтэй", "zipcode": "12360" }
          ]
        },
        {
          "mnname": "Налайх дүүрэг",
          "zipcode": "12600",
          "name": "Nalaikh",
          "district": 7,
          "population": 26529,
          "area": 687.6,
          "density": 40.9,
          "stat": "district",
          "sub_items": [
            { "mnname": "Өндөр улаан", "zipcode": "12591" },
            { "mnname": "Баян давааны энгэр", "zipcode": "12592" },
            { "mnname": "Цонжин болдог", "zipcode": "12593" },
            { "mnname": "Тулгат гацаа", "zipcode": "12594" },
            { "mnname": "Агуйт", "zipcode": "12595" },
            { "mnname": "100 мод", "zipcode": "12596" },
            { "mnname": "Цагаан овоо", "zipcode": "12597" },
            { "mnname": "Ёлын ам", "zipcode": "12598" },
            { "mnname": "Элстэй", "zipcode": "12599" },
            { "mnname": "Тэрэлжийн бага ёл", "zipcode": "12601" },
            { "mnname": "Гандан ам", "zipcode": "12602" },
            { "mnname": "Гялаан мөс", "zipcode": "12603" },
            { "mnname": "Онгоцотын ам", "zipcode": "12604" },
            { "mnname": "Дугуй бургастай", "zipcode": "12605" },
            { "mnname": "Элст тохой", "zipcode": "12606" },
            { "mnname": "Цагаан овооны хєндий", "zipcode": "12607" },
            { "mnname": "Нисэх хотхон", "zipcode": "12608" },
            { "mnname": "Баян-уул", "zipcode": "12609" },
            { "mnname": "Бүс нуур", "zipcode": "12610" },
            { "mnname": "Их ам", "zipcode": "12611" },
            { "mnname": "Гандан уул", "zipcode": "12612" },
            { "mnname": "Уурхай", "zipcode": "12613" },
            { "mnname": "Баян", "zipcode": "12614" },
            { "mnname": "Дархан ноёны хөндий", "zipcode": "12615" },
            { "mnname": "Налайхын тал", "zipcode": "12616" },
            { "mnname": "Их бага модны ам", "zipcode": "12617" },
            { "mnname": "Буурлын даваа", "zipcode": "12618" },
            { "mnname": "Хар чулуутын ам", "zipcode": "12619" },
            { "mnname": "Их ам", "zipcode": "12620" },
            { "mnname": "Хөндлөнгийн ам", "zipcode": "12621" },
            { "mnname": "Хайрханы ам", "zipcode": "12622" },
            { "mnname": "Шохойтын ам", "zipcode": "12623" },
            { "mnname": "Наран", "zipcode": "12630" },
            { "mnname": "Нисэх", "zipcode": "12640" },
            { "mnname": "Єлгий", "zipcode": "12650" },
            { "mnname": "Алтай", "zipcode": "12660" },
            { "mnname": "Баянзүрх", "zipcode": "12670" },
            { "mnname": "Замчин", "zipcode": "12680" },
            { "mnname": "Туул", "zipcode": "12690" },
            { "mnname": "Дэнж", "zipcode": "12700" },
            { "mnname": "Тэрэлж", "zipcode": "12710" },
            { "mnname": "Шилжрээ", "zipcode": "12712" },
            { "mnname": "Энгэр шанд", "zipcode": "12720" },
            { "mnname": "Өгөөмөрийн ам", "zipcode": "12724" },
            { "mnname": "Онгоцотын ам", "zipcode": "12728" },
            { "mnname": "Суурьшилгүй бүс", "zipcode": "12735" },
            { "mnname": "Антын ам", "zipcode": "12739" },
            { "mnname": "Цэргийн анги", "zipcode": "12740" },
            { "mnname": "Уурхайчин", "zipcode": "12750" },
            { "mnname": "Залуучууд", "zipcode": "12760" },
            { "mnname": "Горхи эрээний ам", "zipcode": "12770" },
            { "mnname": "Горхийн баруун салаа", "zipcode": "12771" },
            { "mnname": "Цайзын хэсэг", "zipcode": "12780" },
            { "mnname": "Жаргалант-1", "zipcode": "12790" },
            { "mnname": "Жаргалант-2", "zipcode": "12791" },
            { "mnname": "Бадрал", "zipcode": "12800" },
            { "mnname": "Өвөр шанд", "zipcode": "12810" },
            { "mnname": "Нарлаг", "zipcode": "12820" }
          ]
        },
        {
          "mnname": "Баянзүрх дүүрэг",
          "zipcode": "13000",
          "name": "Bayanzurkh",
          "district": 28,
          "population": 196132,
          "area": 1244.1,
          "density": 178.1,
          "stat": "district",
          "sub_items": [
            { "mnname": "Суурьшилгүй бүс", "zipcode": "13009" },
            { "mnname": "Дэндийн ам", "zipcode": "13010" },
            { "mnname": "Суурьшилгүй бүс", "zipcode": "13011" },
            { "mnname": "Арцат", "zipcode": "13012" },
            { "mnname": "Бага хуандай", "zipcode": "13013" },
            { "mnname": "Шар хоолойн ам", "zipcode": "13020" },
            { "mnname": "Могойн дэнж", "zipcode": "13050" },
            { "mnname": "Суурьшилгүй бүс", "zipcode": "13051" },
            { "mnname": "Их ам", "zipcode": "13070" },
            { "mnname": "Улаан эрэг", "zipcode": "13080" },
            { "mnname": "Хонхор нуур", "zipcode": "13085" },
            { "mnname": "Шажин хурах", "zipcode": "13086" },
            { "mnname": "Майхан уул", "zipcode": "13087" },
            { "mnname": "Нам даваа", "zipcode": "13088" },
            { "mnname": "Хөлийн гол-1", "zipcode": "13089" },
            { "mnname": "Хонхор", "zipcode": "13090" },
            { "mnname": "Суурьшилгүй бүс", "zipcode": "13091" },
            { "mnname": "Туулын хэсэг", "zipcode": "13100" },
            { "mnname": "Төвийн хэсэг", "zipcode": "13110" },
            { "mnname": "Баян дөхөмийн ам", "zipcode": "13120" },
            { "mnname": "Суурьшилгүй бүс", "zipcode": "13121" },
            { "mnname": "Эмийн ургамал", "zipcode": "13140" },
            { "mnname": "Баян төхөм", "zipcode": "13150" },
            { "mnname": "Гүнжийн хоолой", "zipcode": "13160" },
            { "mnname": "Бумбат", "zipcode": "13170" },
            { "mnname": "Ногоон зоорь", "zipcode": "13180" },
            { "mnname": "Сүүл даваа", "zipcode": "13181" },
            { "mnname": "Ногоон зоорь", "zipcode": "13182" },
            { "mnname": "Хөлийн гол-2", "zipcode": "13183" },
            { "mnname": "Туулын зөрлөг", "zipcode": "13184" },
            { "mnname": "Туулын зөрлөг", "zipcode": "13190" },
            { "mnname": "Төрхурах", "zipcode": "13200" },
            { "mnname": "Суурьшилгүй бүс", "zipcode": "13201" },
            { "mnname": "Хужирбулан", "zipcode": "13210" },
            { "mnname": "Их булгийн ам", "zipcode": "13211" },
            { "mnname": "Баатархайрхан", "zipcode": "13212" },
            { "mnname": "Майхант", "zipcode": "13213" },
            { "mnname": "Улиастайн гол", "zipcode": "13214" },
            { "mnname": "Цардуулт", "zipcode": "13215" },
            { "mnname": "Хадат, Хожуултын ам", "zipcode": "13216" },
            { "mnname": "Шарын ам", "zipcode": "13217" },
            { "mnname": "Улиастай гол", "zipcode": "13218" },
            { "mnname": "Чулуут", "zipcode": "13220" },
            { "mnname": "Суурьшилгүй бүс", "zipcode": "13221" },
            { "mnname": "Хүрхрээ", "zipcode": "13240" },
            { "mnname": "Залаатын ам", "zipcode": "13241" },
            { "mnname": "Улиастай", "zipcode": "13250" },
            { "mnname": "Амгалан-1", "zipcode": "13260" },
            { "mnname": "Амгалан-2", "zipcode": "13270" },
            { "mnname": "Амгалан-3", "zipcode": "13271" },
            { "mnname": "Шар хад", "zipcode": "13280" },
            { "mnname": "Шар хад-2", "zipcode": "13281" },
            { "mnname": "Цайз-1", "zipcode": "13290" },
            { "mnname": "Цайз-2", "zipcode": "13291" },
            { "mnname": "Цайз-3", "zipcode": "13292" },
            { "mnname": "Улаанхуаран-1", "zipcode": "13300" },
            { "mnname": "Улаанхуаран-2", "zipcode": "13301" },
            { "mnname": "Улаанхуаран-3", "zipcode": "13302" },
            { "mnname": "Шинэ суурьшил", "zipcode": "13311" },
            { "mnname": "Шинэ суурьшил", "zipcode": "13312" },
            { "mnname": "Суурьшилгүй бүс", "zipcode": "13313" },
            { "mnname": "Бага тэнгэрийн ам", "zipcode": "13314" },
            { "mnname": "Их тэнгэрийн ам-1", "zipcode": "13315" },
            { "mnname": "16-р хороолол-1", "zipcode": "13320" },
            { "mnname": "16-р хороолол-2", "zipcode": "13321" },
            { "mnname": "14-р хороолол-1", "zipcode": "13330" },
            { "mnname": "14-р хороолол-2", "zipcode": "13331" },
            { "mnname": "14-р хороолол-3", "zipcode": "13332" },
            { "mnname": "14-р хороолол-4", "zipcode": "13333" },
            { "mnname": "14-р хороолол-5", "zipcode": "13334" },
            { "mnname": "14-р хороолол-6", "zipcode": "13335" },
            { "mnname": "14-р хороолол-7", "zipcode": "13336" },
            { "mnname": "15--р хороолол-1", "zipcode": "13340" },
            { "mnname": "15--р хороолол-2", "zipcode": "13341" },
            { "mnname": "15--р хороолол-3", "zipcode": "13342" },
            { "mnname": "15--р хороолол-4", "zipcode": "13343" },
            { "mnname": "15--р хороолол-5", "zipcode": "13344" },
            { "mnname": "15--р хороолол-6", "zipcode": "13345" },
            { "mnname": "Дарь-Эх -1", "zipcode": "13350" },
            { "mnname": "Дарь-Эх -2", "zipcode": "13351" },
            { "mnname": "Дунд дарь-Эх", "zipcode": "13352" },
            { "mnname": "Жамсран уулын өвөр", "zipcode": "13353" },
            { "mnname": "Бага дарь-Эх", "zipcode": "13354" },
            { "mnname": "Ганц худгийн ам", "zipcode": "13355" },
            { "mnname": "Хоршооллын хотхон-1", "zipcode": "13360" },
            { "mnname": "Хоршооллын хотхон -2", "zipcode": "13361" },
            { "mnname": "13-р хороолол 2-1", "zipcode": "13370" },
            { "mnname": "13-р хороолол 2-2", "zipcode": "13371" },
            { "mnname": "13-р хороолол 2-3", "zipcode": "13372" },
            { "mnname": "13-р хороолол 2-4", "zipcode": "13373" },
            { "mnname": "13-р хороолол 2-5", "zipcode": "13374" },
            { "mnname": "12-р хороолол-1", "zipcode": "13380" },
            { "mnname": "12-р хороолол-2", "zipcode": "13381" }
          ]
        },
        {
          "mnname": "Сүхбаатар дүүрэг",
          "zipcode": "14000",
          "name": "Sukhbaatar",
          "district": 20,
          "population": 117233,
          "area": 208.4,
          "density": 621.3,
          "stat": "district",
          "sub_items": [
            { "mnname": "Бэлх хадат 1-р хэсэг", "zipcode": "14010" },
            { "mnname": "Бэлх хадат 2-р хэсэг", "zipcode": "14011" },
            { "mnname": "Бэлх Цуурайт", "zipcode": "14012" },
            { "mnname": "Сэлбэ 1-р хэсэг", "zipcode": "14020" },
            { "mnname": "Сэлбэ 2-р хэсэг", "zipcode": "14021" },
            { "mnname": "Цээнийн хэсэг", "zipcode": "14030" },
            { "mnname": "Цолмонгийн ам 1-р хэсэг", "zipcode": "14040" },
            { "mnname": "Цолмонгийн ам 2-р хэсэг", "zipcode": "14041" },
            { "mnname": "Бэлх 1-р хэсэг", "zipcode": "14050" },
            { "mnname": "Бэлх 2-р хэсэг", "zipcode": "14051" },
            { "mnname": "Бэлх Мааньтын даваа", "zipcode": "14052" },
            { "mnname": "Бэлх Даваатын ам", "zipcode": "14053" },
            { "mnname": "Дамбадаржаа-1", "zipcode": "14060" },
            { "mnname": "Дамбадаржаа-2", "zipcode": "14061" },
            { "mnname": "Дамбадаржаа-3", "zipcode": "14062" },
            { "mnname": "Сэлх 1-р хэсэг", "zipcode": "14070" },
            { "mnname": "Сэлх 2-р хэсэг", "zipcode": "14071" },
            { "mnname": "Сэлх 3-р хэсэг", "zipcode": "14072" },
            { "mnname": "Сэлх 4-р хэсэг", "zipcode": "14073" },
            { "mnname": "Шарга морьт 1- хэсэг", "zipcode": "14080" },
            { "mnname": "Шарга морьт 2-хэсэг", "zipcode": "14081" },
            { "mnname": "Шарга морьт 3-хэсэг", "zipcode": "14082" },
            { "mnname": "Шарга морьт 4-хэсэг", "zipcode": "14083" },
            { "mnname": "Шарга морьт 5-хэсэг", "zipcode": "14084" },
            { "mnname": "Шарга морьт 6-хэсэг", "zipcode": "14085" },
            { "mnname": "Хандгайт 1-р хэсэг", "zipcode": "14090" },
            { "mnname": "Хандгайт 2-р хэсэг", "zipcode": "14091" },
            { "mnname": "Хандгайт 3-р хэсэг", "zipcode": "14092" },
            { "mnname": "Хандгайтын богино 2-р хэсэг", "zipcode": "14093" },
            { "mnname": "Хандгайтын богино 1-р хэсэг", "zipcode": "14094" },
            { "mnname": "Ар хустай 1-р хэсэг", "zipcode": "14100" },
            { "mnname": "Ар хустай 2-р хэсэг", "zipcode": "14101" },
            { "mnname": "Зуун мод_СБ", "zipcode": "14105" },
            { "mnname": "Баянбулаг 1-р хэсэг", "zipcode": "14110" },
            { "mnname": "Баянбулаг 2-р хэсэг", "zipcode": "14111" },
            { "mnname": "Баянбулаг 3-р хэсэг", "zipcode": "14112" },
            { "mnname": "Хуурай мухар 1-р хэсэг", "zipcode": "14120" },
            { "mnname": "Хуурай мухар 2-р хэсэг", "zipcode": "14121" },
            { "mnname": "Хуурай мухар 3-р хэсэг", "zipcode": "14122" },
            { "mnname": "Гоодойн ам 1-р хэсэг", "zipcode": "14130" },
            { "mnname": "Гоодойн ам 2-р хэсэг", "zipcode": "14131" },
            { "mnname": "Гоодойн ам 3-р хэсэг", "zipcode": "14132" },
            { "mnname": "Санзай 1-р хэсэг", "zipcode": "14140" },
            { "mnname": "Санзай 2-р хэсэг", "zipcode": "14141" },
            { "mnname": "Санзай 3-р хэсэг", "zipcode": "14142" },
            { "mnname": "Санзай 4-р хэсэг", "zipcode": "14143" },
            { "mnname": "Майхан толгой_СБ 1-р хэсэг", "zipcode": "14150" },
            { "mnname": "Майхан толгой_СБ 2-р хэсэг", "zipcode": "14151" },
            { "mnname": "5 буудал", "zipcode": "14160" },
            { "mnname": "100 айл-1", "zipcode": "14170" },
            { "mnname": "100 айл-2", "zipcode": "14171" },
            { "mnname": "7-р хороолол-1", "zipcode": "14180" },
            { "mnname": "7-р хороолол-2", "zipcode": "14181" },
            { "mnname": "7-р хороолол-3", "zipcode": "14182" },
            { "mnname": "11-р хороолол-1", "zipcode": "14190" },
            { "mnname": "11-р хороолол-2", "zipcode": "14191" },
            { "mnname": "11-р хороолол-3", "zipcode": "14192" },
            { "mnname": "11-р хороолол-4", "zipcode": "14193" },
            { "mnname": "Бага тойруу-1", "zipcode": "14200" },
            { "mnname": "Бага тойруу-2", "zipcode": "14201" },
            { "mnname": "13-р хороолол 1-1", "zipcode": "14210" },
            { "mnname": "13-р хороолол 1-2", "zipcode": "14220" },
            { "mnname": "13-р хороолол 1-3", "zipcode": "14230" },
            { "mnname": "Соёл амралтын хүрээлэн -1", "zipcode": "14240" },
            { "mnname": "Соёл амралтын хүрээлэн - 2", "zipcode": "14241" },
            { "mnname": "5-р хороолол-1", "zipcode": "14250" },
            { "mnname": "5-р хороолол-2", "zipcode": "14251" },
            { "mnname": "5-р хороолол-3", "zipcode": "14252" },
            { "mnname": "5-р хороолол-4", "zipcode": "14253" }
          ]
        },
        {
          "mnname": "Чингэлтэй дүүрэг",
          "zipcode": "15000",
          "name": "Chingeltei",
          "district": 19,
          "population": 130501,
          "area": 89.3,
          "density": 1523.1,
          "stat": "district",
          "sub_items": [
            { "mnname": "Ар согоот 1-р хэсэг", "zipcode": "15010" },
            { "mnname": "Ар согоот 2-р хэсэг", "zipcode": "15011" },
            { "mnname": "Шадивлан 1-р хэсэг", "zipcode": "15020" },
            { "mnname": "Шадивлан 2-р хэсэг", "zipcode": "15021" },
            { "mnname": "Шадивлан 3-р хэсэг", "zipcode": "15022" },
            { "mnname": "Шадивлан 4-р хэсэг", "zipcode": "15023" },
            { "mnname": "Шадивлан 5-р хэсэг", "zipcode": "15024" },
            { "mnname": "Чингэлтэй 1-р хэсэг", "zipcode": "15030" },
            { "mnname": "Чингэлтэй 2-р хэсэг", "zipcode": "15031" },
            { "mnname": "Чингэлтэй 3-р хэсэг", "zipcode": "15032" },
            { "mnname": "Зуун мод_ЧИН 1-р хэсэг", "zipcode": "15040" },
            { "mnname": "Зуун мод_ЧИН  2-р хэсэг", "zipcode": "15041" },
            { "mnname": "Яргайт 1-р хэсэг", "zipcode": "15050" },
            { "mnname": "Яргайт 2-р хэсэг", "zipcode": "15051" },
            { "mnname": "Яргайтын богино 1-р хэсэг", "zipcode": "15052" },
            { "mnname": "Яргайтын богино 2-р хэсэг", "zipcode": "15053" },
            { "mnname": "Яргайтын богино 3-р хэсэг", "zipcode": "15054" },
            { "mnname": "Салхит", "zipcode": "15060" },
            { "mnname": "Ойнбулаг", "zipcode": "15070" },
            { "mnname": "Майхан толгой_Чин 1-р хэсэг", "zipcode": "15080" },
            { "mnname": "Майхан толгой_Чин 2-р хэсэг", "zipcode": "15081" },
            { "mnname": "Гүнт 1-р хэсэг", "zipcode": "15090" },
            { "mnname": "Гүнт 2-р хэсэг", "zipcode": "15091" },
            { "mnname": "Жигжид 1-р хэсэг", "zipcode": "15100" },
            { "mnname": "Жигжид 2-р хэсэг", "zipcode": "15101" },
            { "mnname": "Жигжид 3-р хэсэг", "zipcode": "15102" },
            { "mnname": "Жигжид 4-р хэсэг", "zipcode": "15103" },
            { "mnname": "Жигжид 5-р хэсэг", "zipcode": "15104" },
            { "mnname": "Хайлааст-1", "zipcode": "15110" },
            { "mnname": "Хайлааст-2", "zipcode": "15111" },
            { "mnname": "Дэнжийн мянга 1-р хэсэг", "zipcode": "15120" },
            { "mnname": "Дэнжийн мянга 2-р хэсэг", "zipcode": "15121" },
            { "mnname": "Телевиз", "zipcode": "15130" },
            { "mnname": "6-р хороолол-1", "zipcode": "15140" },
            { "mnname": "6-р хороолол-2", "zipcode": "15141" },
            { "mnname": "Тасганы овоо", "zipcode": "15150" },
            { "mnname": "Бага тойруу-3", "zipcode": "15160" },
            { "mnname": "40, 50 мянгат-1", "zipcode": "15170" },
            { "mnname": "40, 50 мянгат-2", "zipcode": "15171" },
            { "mnname": "40, 50 мянгат-3", "zipcode": "15172" }
          ]
        },
        {
          "mnname": "Баянгол дүүрэг",
          "zipcode": "16000",
          "name": "Bayangol",
          "district": 23,
          "population": 160479,
          "area": 29.5,
          "density": 5598.6,
          "stat": "district",
          "sub_items": [
            { "mnname": "Үйлдвэрийн төвийн бүс-1", "zipcode": "16010" },
            { "mnname": "Үйлдвэрийн төвийн бүс-2", "zipcode": "16020" },
            { "mnname": "Үйлдвэрийн төвийн бүс-3", "zipcode": "16030" },
            { "mnname": "Гандан", "zipcode": "16040" },
            { "mnname": "2-р хороолол-1", "zipcode": "16050" },
            { "mnname": "2-р хороолол-2", "zipcode": "16051" },
            { "mnname": "2-р хороолол-3", "zipcode": "16052" },
            { "mnname": "4-р хороолол-1", "zipcode": "16060" },
            { "mnname": "4-р хороолол-2", "zipcode": "16061" },
            { "mnname": "4-р хороолол-3", "zipcode": "16062" },
            { "mnname": "4-р хороолол-4", "zipcode": "16063" },
            { "mnname": "4-р хороолол-5", "zipcode": "16064" },
            { "mnname": "4-р хороолол-6", "zipcode": "16065" },
            { "mnname": "4-р хороолол-7", "zipcode": "16066" },
            { "mnname": "4-р хороолол-8", "zipcode": "16067" },
            { "mnname": "Наран-1", "zipcode": "16070" },
            { "mnname": "10-р хороолол-1", "zipcode": "16080" },
            { "mnname": "10-р хороолол-2", "zipcode": "16081" },
            { "mnname": "3-р хороолол-1", "zipcode": "16090" },
            { "mnname": "3-р хороолол-2", "zipcode": "16091" },
            { "mnname": "3-р хороолол-3", "zipcode": "16092" },
            { "mnname": "3-р хороолол-4", "zipcode": "16093" },
            { "mnname": "3-р хороолол-5", "zipcode": "16094" },
            { "mnname": "3-р хороолол-6", "zipcode": "16095" },
            { "mnname": "Үйлдвэрийн баруун бүс 1-1", "zipcode": "16100" },
            { "mnname": "Үйлдвэрийн баруун бүс 1-2", "zipcode": "16101" },
            { "mnname": "Үйлдвэрийн баруун бүс 1-3", "zipcode": "16102" },
            { "mnname": "Үйлдвэрийн баруун бүс 1-4", "zipcode": "16103" }
          ]
        },
        {
          "mnname": "Хан-Уул дүүрэг",
          "zipcode": "17000",
          "name": "Khan-Uul",
          "district": 16,
          "population": 87912,
          "area": 484.7,
          "density": 195.3,
          "stat": "district",
          "sub_items": [
            { "mnname": "Суурьшилгүй бүс", "zipcode": "17009" },
            { "mnname": "Стадион Оргил-1", "zipcode": "17010" },
            { "mnname": "Стадион Оргил-2", "zipcode": "17011" },
            { "mnname": "Стадион Оргил-3", "zipcode": "17012" },
            { "mnname": "Стадион Оргил-4", "zipcode": "17013" },
            { "mnname": "Зайсан-1", "zipcode": "17020" },
            { "mnname": "Зайсан-2", "zipcode": "17021" },
            { "mnname": "Зайсан-3", "zipcode": "17022" },
            { "mnname": "Зайсан-4", "zipcode": "17023" },
            { "mnname": "Зайсан-5", "zipcode": "17024" },
            { "mnname": "Зайсан-6", "zipcode": "17025" },
            { "mnname": "Зайсан-7", "zipcode": "17026" },
            { "mnname": "Зайсан-8", "zipcode": "17027" },
            { "mnname": "Зайсан-9", "zipcode": "17028" },
            { "mnname": "Зайсан-10", "zipcode": "17029" },
            { "mnname": "19-р хороолол-1", "zipcode": "17030" },
            { "mnname": "19-р хороолол-2", "zipcode": "17031" },
            { "mnname": "19-р хороолол-3", "zipcode": "17032" },
            { "mnname": "19-р хороолол-4", "zipcode": "17033" },
            { "mnname": "Үйлдвэр 2-1", "zipcode": "17040" },
            { "mnname": "Үйлдвэр 2-2", "zipcode": "17041" },
            { "mnname": "Үйлдвэр 2-3", "zipcode": "17042" },
            { "mnname": "Үйлдвэр 2-4", "zipcode": "17043" },
            { "mnname": "Богины ам", "zipcode": "17050" },
            { "mnname": "Чандманы ам", "zipcode": "17051" },
            { "mnname": "Үйлдвэр 1-1", "zipcode": "17060" },
            { "mnname": "Үйлдвэр 1-2", "zipcode": "17061" },
            { "mnname": "Үйлдвэр 1-3", "zipcode": "17062" },
            { "mnname": "Үйлдвэрийн баруун бүс 2-1", "zipcode": "17070" },
            { "mnname": "Үйлдвэрийн баруун бүс 2-2", "zipcode": "17071" },
            { "mnname": "Хүүшийн ам", "zipcode": "17080" },
            { "mnname": "Суурьшилгүй бүс", "zipcode": "17081" },
            { "mnname": "Суурьшилгүй бүс", "zipcode": "17082" },
            { "mnname": "Нүхт", "zipcode": "17090" },
            { "mnname": "Жаргалантын ам", "zipcode": "17091" },
            { "mnname": "Яармагийн урд дэнж-2", "zipcode": "17100" },
            { "mnname": "Яармагийн урд дэнж -1", "zipcode": "17101" },
            { "mnname": "Дарга толгойн ам", "zipcode": "17102" },
            { "mnname": "Яармаг", "zipcode": "17110" },
            { "mnname": "Яармаг-2", "zipcode": "17111" },
            { "mnname": "Буянт Ухаа", "zipcode": "17120" },
            { "mnname": "Буянт Ухаа  хороолол-2", "zipcode": "17121" },
            { "mnname": "Буянт Ухаа хороолол-3", "zipcode": "17122" },
            { "mnname": "Морин-2", "zipcode": "17130" },
            { "mnname": "Морин-1", "zipcode": "17131" },
            { "mnname": "Тайны ам", "zipcode": "17132" },
            { "mnname": "Морин-2", "zipcode": "17133" },
            { "mnname": "Био комбинат /Сонгино/ -1", "zipcode": "17140" },
            { "mnname": "Био комбинат /Сонгино/ -2", "zipcode": "17141" },
            { "mnname": "Эрдэнэтолгой", "zipcode": "17142" },
            { "mnname": "Био комбинат 2", "zipcode": "17143" },
            { "mnname": "Сонгины амралтын хэсэг", "zipcode": "17144" },
            { "mnname": "Өлзийт", "zipcode": "17150" },
            { "mnname": "Суурьшилгүй б", "zipcode": "17151" },
            { "mnname": "Бугын ам", "zipcode": "17152" },
            { "mnname": "Ар хөндлөнгийн хэсэг", "zipcode": "17153" },
            { "mnname": "Гавжийн шанд", "zipcode": "17160" },
            { "mnname": "Шувуун фабрик /Туул тосгон/", "zipcode": "17170" },
            { "mnname": "Шувуун фабрик  /Туул тосгон/", "zipcode": "17171" },
            { "mnname": "Шувуун фабрик-2", "zipcode": "17172" },
            { "mnname": "Уушийн ар", "zipcode": "17173" },
            { "mnname": "Аж үйлдвэрийн парк хэсэг", "zipcode": "17174" },
            { "mnname": "Улаан овоот", "zipcode": "17175" }
          ]
        },
        {
          "mnname": "Сонгинохайрхан дүүрэг",
          "zipcode": "18000",
          "name": "Songinokhairkhan",
          "district": 32,
          "population": 204587,
          "area": 1200.6,
          "density": 183.5,
          "stat": "district",
          "sub_items": [
            { "mnname": "Баянхошуу-1-1", "zipcode": "18010" },
            { "mnname": "Баянхошуу-1-2", "zipcode": "18011" },
            { "mnname": "Наран-2", "zipcode": "18020" },
            { "mnname": "1-р хороолол-1", "zipcode": "18030" },
            { "mnname": "1-р хороолол-2", "zipcode": "18031" },
            { "mnname": "1-р хороолол-3", "zipcode": "18032" },
            { "mnname": "Өнөр хороолол", "zipcode": "18040" },
            { "mnname": "Толгойтын зүүн салаа-1", "zipcode": "18050" },
            { "mnname": "Толгойтын зүүн салаа-2", "zipcode": "18051" },
            { "mnname": "Суурьшилгүй бүс", "zipcode": "18052" },
            { "mnname": "Ханын материал-1", "zipcode": "18060" },
            { "mnname": "Ханын материал-2", "zipcode": "18061" },
            { "mnname": "Ханын материал-3", "zipcode": "18062" },
            { "mnname": "Москва хороолол-1", "zipcode": "18070" },
            { "mnname": "Москва хороолол-2", "zipcode": "18071" },
            { "mnname": "Москва хороолол-3", "zipcode": "18072" },
            { "mnname": "21-р хороолол-1", "zipcode": "18080" },
            { "mnname": "21-р хороолол-2", "zipcode": "18081" },
            { "mnname": "21-р хороолол-3", "zipcode": "18082" },
            { "mnname": "Баянхошуу-2", "zipcode": "18090" },
            { "mnname": "Толгойт-1", "zipcode": "18100" },
            { "mnname": "Толгойт-2", "zipcode": "18101" },
            { "mnname": "Толгойт-3", "zipcode": "18102" },
            { "mnname": "Толгойт-4", "zipcode": "18103" },
            { "mnname": "Толгойт-5", "zipcode": "18104" },
            { "mnname": "Толгойт-6", "zipcode": "18105" },
            { "mnname": "Богдын ар", "zipcode": "18110" },
            { "mnname": "Ар гүнт", "zipcode": "18120" },
            { "mnname": "Сонсголон-1", "zipcode": "18130" },
            { "mnname": "Сонсголон-2", "zipcode": "18131" },
            { "mnname": "Сонсголон-3", "zipcode": "18132" },
            { "mnname": "Сонсголон-4", "zipcode": "18133" },
            { "mnname": "Сонсголон-5", "zipcode": "18134" },
            { "mnname": "Сонсголон-6", "zipcode": "18135" },
            { "mnname": "Наран-1", "zipcode": "18140" },
            { "mnname": "Наран-2", "zipcode": "18141" },
            { "mnname": "Толгойтын баруун салаа-1", "zipcode": "18150" },
            { "mnname": "Толгойтын баруун салаа-2", "zipcode": "18151" },
            { "mnname": "Суурьшилгүй бүс", "zipcode": "18152" },
            { "mnname": "Их наран", "zipcode": "18160" },
            { "mnname": "Орбит-1", "zipcode": "18170" },
            { "mnname": "Орбит-2", "zipcode": "18171" },
            { "mnname": "Орбит-3", "zipcode": "18172" },
            { "mnname": "Орбит-4", "zipcode": "18173" },
            { "mnname": "Баянголын ам-1", "zipcode": "18180" },
            { "mnname": "Баянголын ам-2", "zipcode": "18181" },
            { "mnname": "Баянголын ам-3", "zipcode": "18182" },
            { "mnname": "Баянголын ам-4", "zipcode": "18183" },
            { "mnname": "Баянголын ам-5", "zipcode": "18190" },
            { "mnname": "Баянголын ам-6", "zipcode": "18191" },
            { "mnname": "Баянголын ам-7", "zipcode": "18192" },
            { "mnname": "Баянголын ам-8", "zipcode": "18193" },
            { "mnname": "Цагаан бургас", "zipcode": "18200" },
            { "mnname": "335-ын гарам", "zipcode": "18210" },
            { "mnname": "Суурьшилгүй бүс", "zipcode": "18211" },
            { "mnname": "Бороочийн ам", "zipcode": "18212" },
            { "mnname": "Өвөр уулын овоо", "zipcode": "18213" },
            { "mnname": "Суурьшилгүй бүс", "zipcode": "18214" },
            { "mnname": "Халзангийн ам", "zipcode": "18215" },
            { "mnname": "Хүйн хөндий", "zipcode": "18216" },
            { "mnname": "335-ын гарам", "zipcode": "18217" },
            { "mnname": "Суурьшилгүй бүс", "zipcode": "18218" },
            { "mnname": "Найрамдал 1", "zipcode": "18220" },
            { "mnname": "Найрамдал 2", "zipcode": "18221" },
            { "mnname": "Найрамдал 3", "zipcode": "18222" },
            { "mnname": "Найрамдал 4", "zipcode": "18223" },
            { "mnname": "Найрамдал 5", "zipcode": "18224" },
            { "mnname": "Найрамдал 6", "zipcode": "18225" },
            { "mnname": "Овоот тосгон", "zipcode": "18230" },
            { "mnname": "Тахилт", "zipcode": "18240" },
            { "mnname": "Суурьшилгүй бүс", "zipcode": "18241" },
            { "mnname": "Тахилтын хөндий", "zipcode": "18242" },
            { "mnname": "Шижиртийн даваа", "zipcode": "18250" },
            { "mnname": "Хустайн ам", "zipcode": "18260" },
            { "mnname": "Хотын шинэ төв", "zipcode": "18270" },
            { "mnname": "Авто худалдааны цогцолбор", "zipcode": "18271" },
            { "mnname": "Бурхант", "zipcode": "18280" },
            { "mnname": "Ханан", "zipcode": "18290" },
            { "mnname": "Шижир", "zipcode": "18300" },
            { "mnname": "Шар цэцэгт", "zipcode": "18310" },
            { "mnname": "Соёондын ам", "zipcode": "18311" },
            { "mnname": "Таширын ам", "zipcode": "18312" },
            { "mnname": "Зүүн туруун", "zipcode": "18320" },
            { "mnname": "Жаргалант тос", "zipcode": "18330" },
            { "mnname": "Баруун туруун", "zipcode": "18340" },
            { "mnname": "Суурьшилгүй бүс", "zipcode": "18341" },
            { "mnname": "Тахир соёот", "zipcode": "18350" },
            { "mnname": "347-ийн гарам", "zipcode": "18360" },
            { "mnname": "Жаргалант тосгон", "zipcode": "18361" },
            { "mnname": "Саалийн ам", "zipcode": "18370" },
            { "mnname": "Аюушийн ам", "zipcode": "18380" },
            { "mnname": "Рашаант тосго", "zipcode": "18390" },
            { "mnname": "Эмээлт", "zipcode": "18400" },
            { "mnname": "Эмээлт -2", "zipcode": "18401" },
            { "mnname": "Суурьшилгүй бүс", "zipcode": "18402" },
            { "mnname": "Долоон худгийн хөндий", "zipcode": "18403" },
            { "mnname": "Шинэ товчоо", "zipcode": "18404" },
            { "mnname": "361-ийн гарам", "zipcode": "18410" },
            { "mnname": "Суурьшилгүй бүс", "zipcode": "18411" },
            { "mnname": "Суурьшилгүй бүс", "zipcode": "18412" },
            { "mnname": "Хурганы сангийн аж ахуй", "zipcode": "18420" },
            { "mnname": "Нарийн", "zipcode": "18430" },
            { "mnname": "369-ын гарам", "zipcode": "18440" },
            { "mnname": "Хужиртын даваа", "zipcode": "18450" },
            { "mnname": "Хүй 7 худаг", "zipcode": "18460" },
            { "mnname": "Дунд дүүрэн ам", "zipcode": "18470" },
            { "mnname": "Суурьшилгүй бүс", "zipcode": "18471" },
            { "mnname": "Эмээлт уулын баруун хоолой", "zipcode": "18472" },
            { "mnname": "Хөх асар", "zipcode": "18480" },
            { "mnname": "Дааган толгой", "zipcode": "18490" },
            { "mnname": "Их булаг", "zipcode": "18500" },
            { "mnname": "Суурьшилгүй бүс", "zipcode": "18501" },
            { "mnname": "Замтын булаг", "zipcode": "18510" },
            { "mnname": "Сүүж", "zipcode": "18520" },
            { "mnname": "Хөндлөнгийн ам", "zipcode": "18530" },
            { "mnname": "Бүрдийн ам", "zipcode": "18540" },
            { "mnname": "Суурьшилгүй бүс", "zipcode": "18550" }
          ]
        }
      ]
    },
    {
      "stat": "province",
      "mnname": "Дорнод",
      "name": "Dornod",
      "year_established": 1941,
      "area": 123597.43,
      "population": 82054,
      "density": 0.66,
      "zipcode": "21000",
      "capital": "Choibalsan",
      "capitalmn": "Чойбалсан",
      "sub_items": [
        {
          "mnname": "Халхгол сум",
          "zipcode": "21010",
          "sub_items": [
            { "mnname": "Цогтсүмбэр", "zipcode": "21011" },
            { "mnname": "Ялалт", "zipcode": "21013" },
            { "mnname": "Ташгай", "zipcode": "21015" }
          ]
        },
        {
          "mnname": "Матад сум",
          "zipcode": "21020",
          "sub_items": [
            { "mnname": "Түмэнхаан", "zipcode": "21021" },
            { "mnname": "Мэнэн", "zipcode": "21022" },
            { "mnname": "Буян Өндөр", "zipcode": "21023" },
            { "mnname": "Баянхангай", "zipcode": "21025" },
            { "mnname": "Жаргалант", "zipcode": "21027" },
            { "mnname": "Эрдэнэбадрах", "zipcode": "21029" }
          ]
        },
        {
          "mnname": "Чулуунхороот",
          "zipcode": "21030",
          "sub_items": [
            { "mnname": "Цагаанчулуут", "zipcode": "21031" },
            { "mnname": "Дэлгэр", "zipcode": "21033" },
            { "mnname": "Галуут", "zipcode": "21035" }
          ]
        },
        {
          "mnname": "Чойбалсан",
          "zipcode": "21040",
          "sub_items": [
            { "mnname": "Энгэр шанд", "zipcode": "21041" },
            { "mnname": "Хулстай", "zipcode": "21043" },
            { "mnname": "Сүмбэр", "zipcode": "21045" },
            { "mnname": "Хөх нуурт", "zipcode": "21047" }
          ]
        },
        {
          "mnname": "Баянтүмэн",
          "zipcode": "21050",
          "sub_items": [
            { "mnname": "Жаргалант", "zipcode": "21051" },
            { "mnname": "Өлзийт", "zipcode": "21053" },
            { "mnname": "Хотонт", "zipcode": "21054" },
            { "mnname": "Цагаан дэрс", "zipcode": "21055" }
          ]
        },
        {
          "mnname": "Хэрлэн сум",
          "zipcode": "21060",
          "sub_items": [
            { "mnname": "6-р баг", "zipcode": "21061" },
            { "mnname": "11-р баг", "zipcode": "21062" },
            { "mnname": "7-р баг", "zipcode": "21063" },
            { "mnname": "1-р баг", "zipcode": "21065" },
            { "mnname": "2-р сум", "zipcode": "21067" },
            { "mnname": "3-р сум", "zipcode": "21069" },
            { "mnname": "10-р баг", "zipcode": "21071" },
            { "mnname": "4-р баг", "zipcode": "21073" },
            { "mnname": "9-р баг", "zipcode": "21075" },
            { "mnname": "5-р баг", "zipcode": "21077" },
            { "mnname": "8-р баг", "zipcode": "21079" }
          ]
        },
        {
          "mnname": "Гурванзагал сум",
          "zipcode": "21080",
          "sub_items": [
            { "mnname": "Рашаант", "zipcode": "21081" },
            { "mnname": "Сүмийн булаг", "zipcode": "21082" },
            { "mnname": "Цагаан хошуу", "zipcode": "21083" }
          ]
        },
        {
          "mnname": "Булган сум",
          "zipcode": "21090",
          "sub_items": [
            { "mnname": "Баян-Уул", "zipcode": "21091" },
            { "mnname": "Хулсан шанд", "zipcode": "21093" },
            { "mnname": "Өндөр хошуу", "zipcode": "21095" },
            { "mnname": "Чулуут", "zipcode": "21097" }
          ]
        },
        {
          "mnname": "Дашбалбар сум",
          "zipcode": "21100",
          "sub_items": [
            { "mnname": "Чух номинт", "zipcode": "21101" },
            { "mnname": "Номинт", "zipcode": "21102" },
            { "mnname": "Улз", "zipcode": "21103" },
            { "mnname": "Сэвсүүл Жараахай", "zipcode": "21105" },
            { "mnname": "Харзат", "zipcode": "21107" }
          ]
        },
        {
          "mnname": "Сэргэлэн",
          "zipcode": "21110",
          "sub_items": [
            { "mnname": "Очирхүрээ", "zipcode": "21111" },
            { "mnname": "Галын гол", "zipcode": "21113" },
            { "mnname": "Баян", "zipcode": "21115" },
            { "mnname": "Барчин", "zipcode": "21117" },
            { "mnname": "Хурган", "zipcode": "21119" }
          ]
        },
        {
          "mnname": "Баяндун",
          "zipcode": "21120",
          "sub_items": [
            { "mnname": "Хайрхан", "zipcode": "21121" },
            { "mnname": "Яргай", "zipcode": "21123" },
            { "mnname": "Түргэн", "zipcode": "21125" },
            { "mnname": "Наран", "zipcode": "21127" }
          ]
        },
        {
          "mnname": "Цагаан-Овоо",
          "zipcode": "21130",
          "sub_items": [
            { "mnname": "Зүрх", "zipcode": "21131" },
            { "mnname": "Хүрээт", "zipcode": "21133" },
            { "mnname": "Баянгол", "zipcode": "21135" },
            { "mnname": "Хөөвөр", "zipcode": "21137" },
            { "mnname": "Гүн цэнгэлэг", "zipcode": "21139" },
            { "mnname": "Элст", "zipcode": "21141" }
          ]
        },
        {
          "mnname": "Хөлөнбуйр сум",
          "zipcode": "21150",
          "sub_items": [
            { "mnname": "Баян", "zipcode": "21151" },
            { "mnname": "Баян-Уул", "zipcode": "21152" },
            { "mnname": "Батхаан", "zipcode": "21153" }
          ]
        },
        {
          "mnname": "Баян-Уул",
          "zipcode": "21160",
          "sub_items": [
            { "mnname": "Битүүгийн адаг", "zipcode": "21161" },
            { "mnname": "Хар чулуут", "zipcode": "21163" },
            { "mnname": "Өвөр эрээн", "zipcode": "21165" },
            { "mnname": "Жаварт хошуу", "zipcode": "21167" },
            { "mnname": "Бэрх", "zipcode": "21169" },
            { "mnname": "Уртын адаг", "zipcode": "21171" }
          ]
        }
      ]
    },
    {
      "stat": "province",
      "mnname": "Сүхбаатар",
      "name": "Sukhbaatar",
      "year_established": 1943,
      "area": 82287.15,
      "population": 63182,
      "density": 0.77,
      "zipcode": "22000",
      "capital": "Baruun-Urt",
      "capitalmn": "Баруун-Урт",
      "sub_items": [
        {
          "mnname": "Эрдэнэцагаан",
          "zipcode": "22010",
          "sub_items": [
            { "mnname": "Хөндлөн хайлааст", "zipcode": "22011" },
            { "mnname": "Хадын булаг", "zipcode": "22013" },
            { "mnname": "Билүүт", "zipcode": "22015" },
            { "mnname": "Цагаан-Овоо", "zipcode": "22017" },
            { "mnname": "Хонгор", "zipcode": "22019" },
            { "mnname": "Бадрах", "zipcode": "22021" },
            { "mnname": "Жаргалант", "zipcode": "22023" },
            { "mnname": "Алтан-Овоо", "zipcode": "22025" }
          ]
        },
        {
          "mnname": "Сүхбаатар",
          "zipcode": "22030",
          "sub_items": [
            { "mnname": "Баянгол", "zipcode": "22031" },
            { "mnname": "Хулгар", "zipcode": "22033" },
            { "mnname": "Хайлааст", "zipcode": "22035" },
            { "mnname": "Шинэбулаг", "zipcode": "22037" },
            { "mnname": "Сайншанд", "zipcode": "22039" }
          ]
        },
        {
          "mnname": "Дарьганга",
          "zipcode": "22040",
          "sub_items": [
            { "mnname": "Бадрах", "zipcode": "22041" },
            { "mnname": "Өрнө дэрс", "zipcode": "22043" },
            { "mnname": "Овоот", "zipcode": "22045" },
            { "mnname": "Аман-Ус", "zipcode": "22047" }
          ]
        },
        {
          "mnname": "Асгат",
          "zipcode": "22050",
          "sub_items": [
            { "mnname": "Дөхөм", "zipcode": "22051" },
            { "mnname": "Өлзийт", "zipcode": "22053" },
            { "mnname": "Жаргалан", "zipcode": "22055" },
            { "mnname": "Их-Уул", "zipcode": "22057" }
          ]
        },
        {
          "mnname": "Наран",
          "zipcode": "22060",
          "sub_items": [
            { "mnname": "Наранбулаг", "zipcode": "22061" },
            { "mnname": "Тосонгийн гол", "zipcode": "22063" },
            { "mnname": "Гүнхудаг", "zipcode": "22065" }
          ]
        },
        {
          "mnname": "Баруун-Урт сум",
          "zipcode": "22070",
          "sub_items": [
            { "mnname": "9-р баг", "zipcode": "22071" },
            { "mnname": "8-р баг", "zipcode": "22073" },
            { "mnname": "7-р баг", "zipcode": "22075" },
            { "mnname": "6-р баг", "zipcode": "22077" },
            { "mnname": "5-р баг", "zipcode": "22079" },
            { "mnname": "4-р баг", "zipcode": "22081" },
            { "mnname": "3-р баг", "zipcode": "22083" },
            { "mnname": "2-р баг", "zipcode": "22085" },
            { "mnname": "1-р баг", "zipcode": "22087" }
          ]
        },
        {
          "mnname": "Онгон",
          "zipcode": "22090",
          "sub_items": [
            { "mnname": "Ихбулаг", "zipcode": "22091" },
            { "mnname": "Шарбүрд", "zipcode": "22093" },
            { "mnname": "Цөнгөрөг", "zipcode": "22095" },
            { "mnname": "Хавирга", "zipcode": "22097" },
            { "mnname": "Нүдэн", "zipcode": "22099" }
          ]
        },
        {
          "mnname": "Халзан",
          "zipcode": "22100",
          "sub_items": [
            { "mnname": "Сайншанд", "zipcode": "22101" },
            { "mnname": "Сахиул", "zipcode": "22103" },
            { "mnname": "Хатавч", "zipcode": "22105" },
            { "mnname": "Халзан шанд", "zipcode": "22107" }
          ]
        },
        {
          "mnname": "Баяндэлгэр",
          "zipcode": "22110",
          "sub_items": [
            { "mnname": "Хонгор", "zipcode": "22111" },
            { "mnname": "Дөхөм", "zipcode": "22113" },
            { "mnname": "Ширээт", "zipcode": "22115" },
            { "mnname": "Төв", "zipcode": "22117" },
            { "mnname": "Дэлгэр", "zipcode": "22119" },
            { "mnname": "Баян", "zipcode": "22121" },
            { "mnname": "Баян-уул", "zipcode": "22123" },
            { "mnname": "Баянцагаан", "zipcode": "22125" },
            { "mnname": "Бүрэнцогт", "zipcode": "22127" }
          ]
        },
        {
          "mnname": "Уулбаян",
          "zipcode": "22130",
          "sub_items": [
            { "mnname": "Дэлгэр", "zipcode": "22131" },
            { "mnname": "Жавхлант", "zipcode": "22133" },
            { "mnname": "Жаргалант", "zipcode": "22135" },
            { "mnname": "Тэгш", "zipcode": "22137" },
            { "mnname": "Баян", "zipcode": "22139" }
          ]
        },
        {
          "mnname": "Мөнххаан",
          "zipcode": "22140",
          "sub_items": [
            { "mnname": "Баянтэрэм", "zipcode": "22141" },
            { "mnname": "Баян-Уул", "zipcode": "22143" },
            { "mnname": "Баясгалант", "zipcode": "22144" },
            { "mnname": "Баян цагаан", "zipcode": "22145" },
            { "mnname": "Бүрэнцогт", "zipcode": "22147" }
          ]
        },
        {
          "mnname": "Түмэнцогт сум",
          "zipcode": "22150",
          "sub_items": [
            { "mnname": "Хошмиг", "zipcode": "22151" },
            { "mnname": "Лхүмбэ", "zipcode": "22153" },
            { "mnname": "Баян-Овоо", "zipcode": "22155" },
            { "mnname": "Баянцогт", "zipcode": "22157" }
          ]
        },
        {
          "mnname": "Түвшинширээ",
          "zipcode": "22160",
          "sub_items": [
            { "mnname": "Дэлгэрхаан", "zipcode": "22161" },
            { "mnname": "Сэргэлэн", "zipcode": "22163" },
            { "mnname": "Өлзийт", "zipcode": "22165" },
            { "mnname": "Өгөөмөр", "zipcode": "22167" },
            { "mnname": "Үнэгт", "zipcode": "22169" }
          ]
        }
      ]
    },
    {
      "stat": "province",
      "mnname": "Хэнтий",
      "name": "Khentii",
      "year_established": 1930,
      "area": 80325.08,
      "population": 77957,
      "density": 0.97,
      "zipcode": "23000",
      "capital": "Chinggis",
      "capitalmn": "Чингис",
      "sub_items": [
        {
          "mnname": "Баян-Овоо",
          "zipcode": "23010",
          "sub_items": [
            { "mnname": "Сүмбэр", "zipcode": "23011" },
            { "mnname": "Наран", "zipcode": "23013" },
            { "mnname": "Жаргалант", "zipcode": "23015" },
            { "mnname": "Дэлгэрхаан", "zipcode": "23017" }
          ]
        },
        {
          "mnname": "Норовлин",
          "zipcode": "23020",
          "sub_items": [
            { "mnname": "Онон", "zipcode": "23021" },
            { "mnname": "Төв", "zipcode": "23023" },
            { "mnname": "Ангирт", "zipcode": "23025" },
            { "mnname": "Баян-Өлзийт", "zipcode": "23027" }
          ]
        },
        {
          "mnname": "Дадал",
          "zipcode": "23030",
          "sub_items": [
            { "mnname": "Агац", "zipcode": "23031" },
            { "mnname": "Баян-Овоо", "zipcode": "23033" },
            { "mnname": "Онон", "zipcode": "23035" },
            { "mnname": "Балж", "zipcode": "23037" }
          ]
        },
        {
          "mnname": "Батноров",
          "zipcode": "23040",
          "sub_items": [
            { "mnname": "Баян", "zipcode": "23041" },
            { "mnname": "Эхэн бүрд", "zipcode": "23043" },
            { "mnname": "Баянбулаг", "zipcode": "23045" },
            { "mnname": "Бэрх", "zipcode": "23047" },
            { "mnname": "Эрдэнэчандмань", "zipcode": "23049" },
            { "mnname": "Төвийн баг", "zipcode": "23051" },
            { "mnname": "Идэрмэг", "zipcode": "23053" },
            { "mnname": "Бэрх", "zipcode": "23055" },
            { "mnname": "Идэрмэг", "zipcode": "23057" },
            { "mnname": "Дундбүрд", "zipcode": "23059" }
          ]
        },
        {
          "mnname": "Баян-хутаг",
          "zipcode": "23060",
          "sub_items": [
            { "mnname": "Жаргалант", "zipcode": "23061" },
            { "mnname": "Улаан Өндөр", "zipcode": "23063" },
            { "mnname": "Цантын хоолой", "zipcode": "23065" }
          ]
        },
        {
          "mnname": "Баян-Адарга",
          "zipcode": "23070",
          "sub_items": [
            { "mnname": "Адарга", "zipcode": "23071" },
            { "mnname": "Сайхан", "zipcode": "23073" },
            { "mnname": "Дуурлиг", "zipcode": "23075" },
            { "mnname": "Жаргалант", "zipcode": "23077" }
          ]
        },
        {
          "mnname": "Галшир",
          "zipcode": "23080",
          "sub_items": [
            { "mnname": "Сангийн далай", "zipcode": "23081" },
            { "mnname": "Жаргалант", "zipcode": "23083" },
            { "mnname": "Буянтбулаг", "zipcode": "23085" },
            { "mnname": "Арвин", "zipcode": "23087" },
            { "mnname": "Баянбадрал", "zipcode": "23089" },
            { "mnname": "Оч", "zipcode": "23091" },
            { "mnname": "Жаргалант", "zipcode": "23093" },
            { "mnname": "Хужирт", "zipcode": "23095" },
            { "mnname": "Арвин", "zipcode": "23097" },
            { "mnname": "Баянбадрал", "zipcode": "23099" }
          ]
        },
        {
          "mnname": "Биндэр",
          "zipcode": "23100",
          "sub_items": [
            { "mnname": "Дэлгэрхаан", "zipcode": "23101" },
            { "mnname": "Баян Өндөр", "zipcode": "23103" },
            { "mnname": "Онон", "zipcode": "23105" },
            { "mnname": "Баянгол", "zipcode": "23107" },
            { "mnname": "Мандалхаан", "zipcode": "23109" }
          ]
        },
        {
          "mnname": "Хэрлэн",
          "zipcode": "23110",
          "sub_items": [
            { "mnname": "Ишгэн толгой", "zipcode": "23111" },
            { "mnname": "ӨндӨр хаан", "zipcode": "23113" },
            { "mnname": "Номгон", "zipcode": "23115" },
            { "mnname": "БаянмӨнх", "zipcode": "23117" },
            { "mnname": "Сариг", "zipcode": "23119" },
            { "mnname": "Цогт Өндөр", "zipcode": "23121" },
            { "mnname": "Хэрлэн баг", "zipcode": "23123" },
            { "mnname": "Булаг", "zipcode": "23125" }
          ]
        },
        {
          "mnname": "Мөрөн",
          "zipcode": "23130",
          "sub_items": [
            { "mnname": "Бүрээт", "zipcode": "23131" },
            { "mnname": "Цагаан толгой", "zipcode": "23133" },
            { "mnname": "Чандган", "zipcode": "23135" },
            { "mnname": "Өлзийт", "zipcode": "23137" },
            { "mnname": "Зөөлөн", "zipcode": "23139" }
          ]
        },
        {
          "mnname": "Өмнөдэлгэр",
          "zipcode": "23140",
          "sub_items": [
            { "mnname": "Талын булаг", "zipcode": "23141" },
            { "mnname": "Гурван баян", "zipcode": "23143" },
            { "mnname": "Чандган", "zipcode": "23145" },
            { "mnname": "Хэнтий", "zipcode": "23147" },
            { "mnname": "Төв", "zipcode": "23149" },
            { "mnname": "Баянзүрх", "zipcode": "23151" },
            { "mnname": "Наран", "zipcode": "23153" },
            { "mnname": "Чандаган", "zipcode": "23155" },
            { "mnname": "Хэнтий", "zipcode": "23157" },
            { "mnname": "Төв", "zipcode": "23159" }
          ]
        },
        {
          "mnname": "Батширээт",
          "zipcode": "23160",
          "sub_items": [
            { "mnname": "Барх", "zipcode": "23161" },
            { "mnname": "Хурх", "zipcode": "23163" },
            { "mnname": "Норволин", "zipcode": "23165" },
            { "mnname": "Онон", "zipcode": "23167" }
          ]
        },
        {
          "mnname": "Баянмөнх",
          "zipcode": "23170",
          "sub_items": [
            { "mnname": "Дулаан", "zipcode": "23171" },
            { "mnname": "Хэрлэн", "zipcode": "23173" },
            { "mnname": "Улаан эрэг", "zipcode": "23175" },
            { "mnname": "Баянбулаг", "zipcode": "23177" }
          ]
        },
        {
          "mnname": "Дархан",
          "zipcode": "23180",
          "sub_items": [
            { "mnname": "Шажин", "zipcode": "23181" },
            { "mnname": "Мэргэн хошуу", "zipcode": "23183" },
            { "mnname": "Бор-Өндөр", "zipcode": "23185" },
            { "mnname": "Хараат", "zipcode": "23187" },
            { "mnname": "Дотуур булаг", "zipcode": "23189" }
          ]
        },
        {
          "mnname": "Жаргалтхаан",
          "zipcode": "23190",
          "sub_items": [
            { "mnname": "Гичгэнэ", "zipcode": "23191" },
            { "mnname": "Чулуут", "zipcode": "23193" },
            { "mnname": "Төв", "zipcode": "23195" },
            { "mnname": "Баянцогт", "zipcode": "23197" },
            { "mnname": "Баян-Эрдэнэ", "zipcode": "23199" }
          ]
        },
        {
          "mnname": "Дэлгэрхаан",
          "zipcode": "23200",
          "sub_items": [
            { "mnname": "Хэрлэн тооно", "zipcode": "23201" },
            { "mnname": "Аварга", "zipcode": "23203" },
            { "mnname": "Долоод", "zipcode": "23205" },
            { "mnname": "Хэрлэнбаян улаан", "zipcode": "23207" },
            { "mnname": "Баянхаан", "zipcode": "23209" }
          ]
        },
        {
          "mnname": "Цэнхэрмандал",
          "zipcode": "23210",
          "sub_items": [
            { "mnname": "Хужхан", "zipcode": "23211" },
            { "mnname": "Баянмод", "zipcode": "23213" },
            { "mnname": "Согоот", "zipcode": "23215" },
            { "mnname": "Нугаар", "zipcode": "23217" }
          ]
        },
        {
          "mnname": "Бор-Өндөр сум",
          "zipcode": "23220",
          "sub_items": [
            { "mnname": "Бор-Өндөр", "zipcode": "23221" },
            { "mnname": "Холбоо", "zipcode": "23223" },
            { "mnname": "Бумбат", "zipcode": "23225" },
            { "mnname": "Уурхайчин", "zipcode": "23227" },
            { "mnname": "Хүйх", "zipcode": "23229" },
            { "mnname": "Өлгий", "zipcode": "23231" },
            { "mnname": "Баянхаан", "zipcode": "23709" }
          ]
        }
      ]
    },
    {
      "stat": "province",
      "mnname": "Төв",
      "name": "Tuv",
      "year_established": 1931,
      "area": 74042.37,
      "population": 94250,
      "density": 1.27,
      "zipcode": "41000",
      "capital": "Zuunmod",
      "capitalmn": "Зуунмод",
      "sub_items": [
        {
          "mnname": "Мөнгөнморьт",
          "zipcode": "41010",
          "sub_items": [
            { "mnname": "Булаг", "zipcode": "41011" },
            { "mnname": "Байдлаг", "zipcode": "41013" },
            { "mnname": "Жаргалант", "zipcode": "41015" }
          ]
        },
        {
          "mnname": "Баянжаргалан",
          "zipcode": "41020",
          "sub_items": [
            { "mnname": "Улаан ухаа", "zipcode": "41021" },
            { "mnname": "Эрдэнэ", "zipcode": "41023" },
            { "mnname": "Жаргалант", "zipcode": "41025" }
          ]
        },
        {
          "mnname": "Баяндэлгэр",
          "zipcode": "41030",
          "sub_items": [
            { "mnname": "Рашаант", "zipcode": "41031" },
            { "mnname": "Байдлаг", "zipcode": "41033" },
            { "mnname": "Галуут", "zipcode": "41035" },
            { "mnname": "Тахилт", "zipcode": "41037" }
          ]
        },
        {
          "mnname": "Эрдэнэ",
          "zipcode": "41040",
          "sub_items": [
            { "mnname": "Өгөөмөр", "zipcode": "41041" },
            { "mnname": "Чулуут", "zipcode": "41043" },
            { "mnname": "Тамган", "zipcode": "41045" },
            { "mnname": "Өвөр Жанчивлан", "zipcode": "41047" },
            { "mnname": "Хушинга", "zipcode": "41049" },
            { "mnname": "Баянтуул", "zipcode": "41051" },
            { "mnname": "Өгөөмөр", "zipcode": "41053" },
            { "mnname": "Цавчир", "zipcode": "41055" },
            { "mnname": "Төв", "zipcode": "41057" }
          ]
        },
        {
          "mnname": "Архуст",
          "zipcode": "41060",
          "sub_items": [
            { "mnname": "Нарст", "zipcode": "41061" },
            { "mnname": "Ноён шанд", "zipcode": "41063" }
          ]
        },
        {
          "mnname": "Баян",
          "zipcode": "41070",
          "sub_items": [
            { "mnname": "Өгөөмөр", "zipcode": "41071" },
            { "mnname": "Цант", "zipcode": "41073" },
            { "mnname": "Мааньт", "zipcode": "41075" },
            { "mnname": "Цавчир", "zipcode": "41077" }
          ]
        },
        {
          "mnname": "Баянцагаан",
          "zipcode": "41080",
          "sub_items": [
            { "mnname": "Гурван түрүү", "zipcode": "41081" },
            { "mnname": "Баян айраг", "zipcode": "41083" },
            { "mnname": "Зогсоол", "zipcode": "41085" },
            { "mnname": "Өлзийт", "zipcode": "41087" },
            { "mnname": "Алтат", "zipcode": "41089" }
          ]
        },
        {
          "mnname": "Сэргэлэн",
          "zipcode": "41090",
          "sub_items": [
            { "mnname": "Эрдэнэ уул", "zipcode": "41091" },
            { "mnname": "Баянбүрд", "zipcode": "41093" },
            { "mnname": "Хөшиг", "zipcode": "41095" },
            { "mnname": "Адвар", "zipcode": "41097" },
            { "mnname": "Хайрхан", "zipcode": "41099" }
          ]
        },
        {
          "mnname": "Зуунмод сум",
          "zipcode": "41100",
          "sub_items": [
            { "mnname": "Зүүндэлгэр", "zipcode": "41101" },
            { "mnname": "Баянхошуу", "zipcode": "41103" },
            { "mnname": "Баруун зуунмод", "zipcode": "41105" },
            { "mnname": "Ланс", "zipcode": "41107" },
            { "mnname": "Нацагдорж", "zipcode": "41109" },
            { "mnname": "Номт", "zipcode": "41111" }
          ]
        },
        {
          "mnname": "Батсүмбэр",
          "zipcode": "41120",
          "sub_items": [
            { "mnname": "Баянгол", "zipcode": "41121" },
            { "mnname": "Цогт Өндөр", "zipcode": "41123" },
            { "mnname": "Үдлэг", "zipcode": "41125" },
            { "mnname": "Мандал", "zipcode": "41127" }
          ]
        },
        {
          "mnname": "Алтанбулаг",
          "zipcode": "41130",
          "sub_items": [
            { "mnname": "Сүмт", "zipcode": "41131" },
            { "mnname": "Аргал", "zipcode": "41133" },
            { "mnname": "Алтан-Овоо", "zipcode": "41135" },
            { "mnname": "Замт", "zipcode": "41137" }
          ]
        },
        {
          "mnname": "Баян-Өнжүүл",
          "zipcode": "41140",
          "sub_items": [
            { "mnname": "Бүрд", "zipcode": "41141" },
            { "mnname": "Бараат", "zipcode": "41143" },
            { "mnname": "Цээл", "zipcode": "41145" }
          ]
        },
        {
          "mnname": "Борнуур",
          "zipcode": "41150",
          "sub_items": [
            { "mnname": "Мандал", "zipcode": "41151" },
            { "mnname": "Өгөөмөр", "zipcode": "41153" },
            { "mnname": "Нарт", "zipcode": "41155" },
            { "mnname": "Бичигт", "zipcode": "41157" }
          ]
        },
        {
          "mnname": "Баянчандмань",
          "zipcode": "41160",
          "sub_items": [
            { "mnname": "Замт", "zipcode": "41161" },
            { "mnname": "Чандмань", "zipcode": "41163" },
            { "mnname": "Эрдэнэ", "zipcode": "41165" }
          ]
        },
        {
          "mnname": "Баянцогт",
          "zipcode": "41170",
          "sub_items": [
            { "mnname": "Гуна", "zipcode": "41171" },
            { "mnname": "Сарлаг", "zipcode": "41173" },
            { "mnname": "Даргиат", "zipcode": "41175" }
          ]
        },
        {
          "mnname": "Аргалант",
          "zipcode": "41180",
          "sub_items": [
            { "mnname": "Аргалын уул", "zipcode": "41181" },
            { "mnname": "Хөшөөт", "zipcode": "41183" }
          ]
        },
        {
          "mnname": "Сүмбэр",
          "zipcode": "41190",
          "sub_items": [
            { "mnname": "Сүмбэр", "zipcode": "41191" },
            { "mnname": "Жавхлант", "zipcode": "41193" }
          ]
        },
        {
          "mnname": "Жаргалант",
          "zipcode": "41200",
          "sub_items": [
            { "mnname": "Буурал", "zipcode": "41201" },
            { "mnname": "Өгөөмөр", "zipcode": "41203" },
            { "mnname": "Баянбулаг", "zipcode": "41205" },
            { "mnname": "Загдал", "zipcode": "41207" }
          ]
        },
        {
          "mnname": "Баянхангай",
          "zipcode": "41210",
          "sub_items": [
            { "mnname": "Хөшөөт", "zipcode": "41211" },
            { "mnname": "Найрамдал", "zipcode": "41213" }
          ]
        },
        {
          "mnname": "Угтаалцайдам",
          "zipcode": "41220",
          "sub_items": [
            { "mnname": "Асгат", "zipcode": "41221" },
            { "mnname": "Хар чулуут", "zipcode": "41223" },
            { "mnname": "Талын-Уул", "zipcode": "41225" }
          ]
        },
        {
          "mnname": "Цээл",
          "zipcode": "41230",
          "sub_items": [
            { "mnname": "Хүүлээхан", "zipcode": "41231" },
            { "mnname": "Сүүл буга", "zipcode": "41233" },
            { "mnname": "Оргил", "zipcode": "41235" },
            { "mnname": "Талын хайрхан", "zipcode": "41237" },
            { "mnname": "Майхан", "zipcode": "41239" }
          ]
        },
        {
          "mnname": "Лүн",
          "zipcode": "41240",
          "sub_items": [
            { "mnname": "Авдрант", "zipcode": "41241" },
            { "mnname": "Цагаан уул", "zipcode": "41243" },
            { "mnname": "Төвийн", "zipcode": "41245" },
            { "mnname": "Өгөөмөр", "zipcode": "41247" }
          ]
        },
        {
          "mnname": "Өндөрширээт",
          "zipcode": "41250",
          "sub_items": [
            { "mnname": "Баянтуул", "zipcode": "41251" },
            { "mnname": "Сант", "zipcode": "41253" },
            { "mnname": "Хайрхан", "zipcode": "41255" },
            { "mnname": "Уянга", "zipcode": "41257" }
          ]
        },
        {
          "mnname": "Бүрэн",
          "zipcode": "41260",
          "sub_items": [
            { "mnname": "Булангаа", "zipcode": "41261" },
            { "mnname": "Монгол", "zipcode": "41263" },
            { "mnname": "Эрдэнэхангай", "zipcode": "41265" },
            { "mnname": "Төхөм", "zipcode": "41267" },
            { "mnname": "Баянцогт", "zipcode": "41269" }
          ]
        },
        {
          "mnname": "Заамар",
          "zipcode": "41270",
          "sub_items": [
            { "mnname": "Төв", "zipcode": "41271" },
            { "mnname": "Тосон", "zipcode": "41273" },
            { "mnname": "Хайлааст", "zipcode": "41275" },
            { "mnname": "Төмстэй", "zipcode": "41277" }
          ]
        },
        {
          "mnname": "Дэлгэрхаан",
          "zipcode": "41280",
          "sub_items": [
            { "mnname": "Тарган", "zipcode": "41281" },
            { "mnname": "Мандал", "zipcode": "41283" },
            { "mnname": "Давст", "zipcode": "41285" },
            { "mnname": "Дуут-Хуримт", "zipcode": "41287" }
          ]
        },
        {
          "mnname": "Эрдэнэсант",
          "zipcode": "41290",
          "sub_items": [
            { "mnname": "Улаанхудаг", "zipcode": "41291" },
            { "mnname": "Угалзат", "zipcode": "41293" },
            { "mnname": "Буянт", "zipcode": "41295" },
            { "mnname": "Баян-Уул", "zipcode": "41297" },
            { "mnname": "Баргиалт", "zipcode": "41299" }
          ]
        }
      ]
    },
    {
      "stat": "province",
      "mnname": "Говьсүмбэр",
      "name": "Govisümber",
      "year_established": 1996,
      "area": 5541.8,
      "population": 17928,
      "density": 3.23,
      "zipcode": "42000",
      "capital": "Choir",
      "capitalmn": "Чойр",
      "sub_items": [
        {
          "mnname": "Сүмбэр",
          "zipcode": "42010",
          "sub_items": [
            { "mnname": "6-р баг", "zipcode": "42011" },
            { "mnname": "5-р баг", "zipcode": "42013" },
            { "mnname": "3-р баг", "zipcode": "42015" },
            { "mnname": "2-р баг", "zipcode": "42017" },
            { "mnname": "1-р баг", "zipcode": "42019" },
            { "mnname": "4-р баг", "zipcode": "42021" },
            { "mnname": "2-р баг", "zipcode": "42023" }
          ]
        },
        {
          "mnname": "Шивээговь",
          "zipcode": "42030",
          "sub_items": [
            { "mnname": "1-р баг", "zipcode": "42031" },
            { "mnname": "2-р баг", "zipcode": "42033" }
          ]
        },
        {
          "mnname": "Баянтал",
          "zipcode": "42040",
          "sub_items": [
            { "mnname": "2-р баг", "zipcode": "42041" },
            { "mnname": "1-р баг", "zipcode": "42043" }
          ]
        }
      ]
    },
    {
      "stat": "province",
      "mnname": "Сэлэнгэ",
      "name": "Selenge",
      "year_established": 1934,
      "area": 41152.63,
      "population": 110110,
      "density": 2.68,
      "zipcode": "43000",
      "capital": "Sukhbaatar",
      "capitalmn": "Сүхбаатар",
      "sub_items": [
        {
          "mnname": "Ерөө",
          "zipcode": "43010",
          "sub_items": [
            { "mnname": "Бугант", "zipcode": "43011" },
            { "mnname": "Буургачин", "zipcode": "43013" },
            { "mnname": "Тавин", "zipcode": "43015" }
          ]
        },
        {
          "mnname": "Хүдэр",
          "zipcode": "43020",
          "sub_items": [
            { "mnname": "Баянцагаан", "zipcode": "43021" },
            { "mnname": "Тарвагатай", "zipcode": "43023" }
          ]
        },
        {
          "mnname": "Мандал сум",
          "zipcode": "43030",
          "sub_items": [
            { "mnname": "Түнхэл", "zipcode": "43031" },
            { "mnname": "Баянхангай", "zipcode": "43032" },
            { "mnname": "Ширхэнцэг", "zipcode": "43033" },
            { "mnname": "Минжхангай", "zipcode": "43034" },
            { "mnname": "Замчин", "zipcode": "43035" },
            { "mnname": "Тарина", "zipcode": "43036" },
            { "mnname": "Хэрх", "zipcode": "43037" },
            { "mnname": "Баян арцат", "zipcode": "43038" },
            { "mnname": "Баянсуудал", "zipcode": "43039" }
          ]
        },
        {
          "mnname": "Алтанбулаг",
          "zipcode": "43040",
          "sub_items": [
            { "mnname": "Цөх", "zipcode": "43041" },
            { "mnname": "Суварга", "zipcode": "43043" },
            { "mnname": "Бүргэдтэй", "zipcode": "43045" }
          ]
        },
        {
          "mnname": "Жавхлант",
          "zipcode": "43050",
          "sub_items": [
            { "mnname": "Моностой", "zipcode": "43051" },
            { "mnname": "Бумбат", "zipcode": "43053" }
          ]
        },
        {
          "mnname": "Баянгол",
          "zipcode": "43060",
          "sub_items": [
            { "mnname": "Баян", "zipcode": "43061" },
            { "mnname": "Гонир", "zipcode": "43063" },
            { "mnname": "Хараа", "zipcode": "43065" }
          ]
        },
        {
          "mnname": "Шаамар",
          "zipcode": "43070",
          "sub_items": [
            { "mnname": "Дулаанхаан", "zipcode": "43071" },
            { "mnname": "Дэлгэрхаан", "zipcode": "43073" },
            { "mnname": "Охиндий", "zipcode": "43075" }
          ]
        },
        {
          "mnname": "Сүхбаатар сум",
          "zipcode": "43080",
          "sub_items": [
            { "mnname": "Цагаан эрэг", "zipcode": "43081" },
            { "mnname": "Орхон", "zipcode": "43082" },
            { "mnname": "Хонгор морьт", "zipcode": "43083" },
            { "mnname": "Ганзам", "zipcode": "43084" },
            { "mnname": "Салхит", "zipcode": "43085" },
            { "mnname": "Буур хээр", "zipcode": "43086" },
            { "mnname": "Бор гүвээ", "zipcode": "43087" },
            { "mnname": "Баянхан", "zipcode": "43089" }
          ]
        },
        {
          "mnname": "Зүүнбүрэн",
          "zipcode": "43090",
          "sub_items": [
            { "mnname": "Мангирт", "zipcode": "43091" },
            { "mnname": "Жаргалант", "zipcode": "43093" },
            { "mnname": "Бэлчир", "zipcode": "43095" }
          ]
        },
        {
          "mnname": "Түшиг",
          "zipcode": "43100",
          "sub_items": [
            { "mnname": "Ар нуга", "zipcode": "43101" },
            { "mnname": "Жаргалмандах", "zipcode": "43103" }
          ]
        },
        {
          "mnname": "Цагааннуур",
          "zipcode": "43110",
          "sub_items": [
            { "mnname": "Тийрэг", "zipcode": "43111" },
            { "mnname": "Хуурч", "zipcode": "43113" },
            { "mnname": "Оргих", "zipcode": "43115" }
          ]
        },
        {
          "mnname": "Хушаат",
          "zipcode": "43120",
          "sub_items": [
            { "mnname": "Мөнхтолгой", "zipcode": "43121" },
            { "mnname": "Ишгэнт", "zipcode": "43123" }
          ]
        },
        {
          "mnname": "Сайхан сум",
          "zipcode": "43130",
          "sub_items": [
            { "mnname": "Хөтөл", "zipcode": "43131" },
            { "mnname": "Номгон", "zipcode": "43133" },
            { "mnname": "Гавшгай", "zipcode": "43135" },
            { "mnname": "Дөмбөн", "zipcode": "43137" }
          ]
        },
        {
          "mnname": "Орхон",
          "zipcode": "43140",
          "sub_items": [
            { "mnname": "Бэлэн далай", "zipcode": "43141" },
            { "mnname": "Орхон", "zipcode": "43143" }
          ]
        },
        {
          "mnname": "Сант",
          "zipcode": "43150",
          "sub_items": [
            { "mnname": "Хушаат", "zipcode": "43151" },
            { "mnname": "Ивэн", "zipcode": "43153" }
          ]
        },
        {
          "mnname": "Орхонтуул",
          "zipcode": "43160",
          "sub_items": [
            { "mnname": "Баянцогт", "zipcode": "43161" },
            { "mnname": "Шар-Ус", "zipcode": "43163" },
            { "mnname": "Хонгор-Овоо", "zipcode": "43165" }
          ]
        },
        {
          "mnname": "Баруунбүрэн",
          "zipcode": "43170",
          "sub_items": [
            { "mnname": "Ивэн", "zipcode": "43171" },
            { "mnname": "Бургалтай", "zipcode": "43173" },
            { "mnname": "Цагаан-овоо", "zipcode": "43175" }
          ]
        }
      ]
    },
    {
      "stat": "province",
      "mnname": "Дорноговь",
      "name": "Dornogovi",
      "year_established": 1931,
      "area": 109472.3,
      "population": 71014,
      "density": 0.65,
      "zipcode": "44000",
      "capital": "Sainshand",
      "capitalmn": "Сайншанд",
      "sub_items": [
        {
          "mnname": "Замын-Үүд сум",
          "zipcode": "44010",
          "sub_items": [
            { "mnname": "2-р баг", "zipcode": "44011" },
            { "mnname": "3-р баг", "zipcode": "44012" },
            { "mnname": "1-р баг", "zipcode": "44013" },
            { "mnname": "4-р баг", "zipcode": "44014" },
            { "mnname": "5-р баг", "zipcode": "44015" }
          ]
        },
        {
          "mnname": "Эрдэнэ",
          "zipcode": "44020",
          "sub_items": [
            { "mnname": "Дөрвөлж", "zipcode": "44021" },
            { "mnname": "Еншөөв", "zipcode": "44023" },
            { "mnname": "Улаан уул", "zipcode": "44025" },
            { "mnname": "Цагаан хөтөл", "zipcode": "44027" },
            { "mnname": "Бүрдэнэ", "zipcode": "44029" }
          ]
        },
        {
          "mnname": "Өргөн",
          "zipcode": "44030",
          "sub_items": [
            { "mnname": "Сүмбэр", "zipcode": "44031" },
            { "mnname": "Баянмөнх", "zipcode": "44033" },
            { "mnname": "Сэнж", "zipcode": "44035" },
            { "mnname": "Сүмийн булаг", "zipcode": "44037" }
          ]
        },
        {
          "mnname": "Дэлгэрэх",
          "zipcode": "44040",
          "sub_items": [
            { "mnname": "Аманшанд", "zipcode": "44041" },
            { "mnname": "Бумбат", "zipcode": "44043" },
            { "mnname": "Хонгор", "zipcode": "44045" },
            { "mnname": "Цагаанхад", "zipcode": "44047" }
          ]
        },
        {
          "mnname": "Улаанбадрах",
          "zipcode": "44050",
          "sub_items": [
            { "mnname": "Баянбогд", "zipcode": "44051" },
            { "mnname": "Сангийн далай", "zipcode": "44053" },
            { "mnname": "Нүдэн", "zipcode": "44055" },
            { "mnname": "Аргалант", "zipcode": "44057" }
          ]
        },
        {
          "mnname": "Хөвсгөл",
          "zipcode": "44060",
          "sub_items": [
            { "mnname": "Жавхлант", "zipcode": "44061" },
            { "mnname": "Хөвсгөл", "zipcode": "44063" },
            { "mnname": "Элст", "zipcode": "44065" },
            { "mnname": "Чулуут", "zipcode": "44067" }
          ]
        },
        {
          "mnname": "Алтанширээ",
          "zipcode": "44070",
          "sub_items": [
            { "mnname": "Зараа", "zipcode": "44071" },
            { "mnname": "Тойг", "zipcode": "44073" },
            { "mnname": "Чулуун гишгэр", "zipcode": "44075" },
            { "mnname": "Хаяа", "zipcode": "44077" }
          ]
        },
        {
          "mnname": "Хатанбулаг",
          "zipcode": "44080",
          "sub_items": [
            { "mnname": "Халив", "zipcode": "44081" },
            { "mnname": "Замын шанд", "zipcode": "44082" },
            { "mnname": "Сулинхээр", "zipcode": "44083" },
            { "mnname": "Аман ус", "zipcode": "44085" },
            { "mnname": "Эргэл", "zipcode": "44087" },
            { "mnname": "Агаруут", "zipcode": "44089" }
          ]
        },
        {
          "mnname": "Иххэт",
          "zipcode": "44090",
          "sub_items": [
            { "mnname": "Баян", "zipcode": "44091" },
            { "mnname": "Зүлэгт", "zipcode": "44093" },
            { "mnname": "Бүрдэнэ", "zipcode": "44095" }
          ]
        },
        {
          "mnname": "Сайншанд сум",
          "zipcode": "44100",
          "sub_items": [
            { "mnname": "4-р баг", "zipcode": "44101" },
            { "mnname": "6-р баг", "zipcode": "44102" },
            { "mnname": "3-р баг", "zipcode": "44103" },
            { "mnname": "7-р баг", "zipcode": "44104" },
            { "mnname": "2-р баг", "zipcode": "44105" },
            { "mnname": "1-р баг", "zipcode": "44107" },
            { "mnname": "5-р баг", "zipcode": "44109" }
          ]
        },
        {
          "mnname": "Сайхандулаан",
          "zipcode": "44110",
          "sub_items": [
            { "mnname": "Улаан шороот", "zipcode": "44111" },
            { "mnname": "Цохио", "zipcode": "44113" },
            { "mnname": "Жаргалант", "zipcode": "44115" },
            { "mnname": "Өлзийт", "zipcode": "44117" }
          ]
        },
        {
          "mnname": "Айраг",
          "zipcode": "44120",
          "sub_items": [
            { "mnname": "Сайн ус", "zipcode": "44121" },
            { "mnname": "Нүдэн", "zipcode": "44123" },
            { "mnname": "Цагаан дөрвөлж", "zipcode": "44125" },
            { "mnname": "Нард", "zipcode": "44127" }
          ]
        },
        {
          "mnname": "Даланжаргалан",
          "zipcode": "44130",
          "sub_items": [
            { "mnname": "Өнгөт", "zipcode": "44131" },
            { "mnname": "Цомог", "zipcode": "44133" },
            { "mnname": "Олон-Овоод", "zipcode": "44134" },
            { "mnname": "Элдэв", "zipcode": "44135" },
            { "mnname": "Бичигт", "zipcode": "44137" }
          ]
        },
        {
          "mnname": "Мандах",
          "zipcode": "44140",
          "sub_items": [
            { "mnname": "Сэрвэн баян хошуу", "zipcode": "44141" },
            { "mnname": "Алхан тээг", "zipcode": "44143" },
            { "mnname": "Өехий", "zipcode": "44145" },
            { "mnname": "Төхөм", "zipcode": "44147" },
            { "mnname": "Баянхошуу", "zipcode": "44149" }
          ]
        }
      ]
    },
    {
      "stat": "province",
      "mnname": "Дархан-Уул",
      "name": "Darkhan-Uul",
      "year_established": 1994,
      "area": 3275.0,
      "population": 107018,
      "density": 33,
      "zipcode": "45000",
      "capital": "Darkhan",
      "capitalmn": "Дархан",
      "sub_items": [
        {
          "mnname": "Шарын гол",
          "zipcode": "45010",
          "sub_items": [
            { "mnname": "Санжинт", "zipcode": "45011" },
            { "mnname": "Дархан", "zipcode": "45013" },
            { "mnname": "Хайрхан", "zipcode": "45015" }
          ]
        },
        {
          "mnname": "Хонгор",
          "zipcode": "45020",
          "sub_items": [
            { "mnname": "Салхит", "zipcode": "45021" },
            { "mnname": "Буурт", "zipcode": "45023" },
            { "mnname": "Буурал", "zipcode": "45025" }
          ]
        },
        {
          "mnname": "Орхон",
          "zipcode": "45030",
          "sub_items": [
            { "mnname": "Энхтал", "zipcode": "45031" },
            { "mnname": "Баян-Өлзийт", "zipcode": "45033" }
          ]
        },
        {
          "mnname": "Дархан сум",
          "zipcode": "45040",
          "sub_items": [
            { "mnname": "7-р баг", "zipcode": "45041" },
            { "mnname": "8-р баг", "zipcode": "45043" },
            { "mnname": "16-р баг", "zipcode": "45045" },
            { "mnname": "15-р баг", "zipcode": "45047" },
            { "mnname": "12-р баг", "zipcode": "45049" },
            { "mnname": "13-р баг", "zipcode": "45051" },
            { "mnname": "6-р баг", "zipcode": "45053" },
            { "mnname": "11-р баг", "zipcode": "45055" },
            { "mnname": "10-р баг", "zipcode": "45057" },
            { "mnname": "14-р баг", "zipcode": "45059" },
            { "mnname": "9-р баг", "zipcode": "45061" },
            { "mnname": "17-р баг", "zipcode": "45062" },
            { "mnname": "5-р баг", "zipcode": "45063" },
            { "mnname": "18-р баг", "zipcode": "45064" },
            { "mnname": "4-р баг", "zipcode": "45065" },
            { "mnname": "1-р баг", "zipcode": "45067" },
            { "mnname": "2-р баг", "zipcode": "45069" },
            { "mnname": "3-р баг", "zipcode": "45071" }
          ]
        }
      ]
    },
    {
      "stat": "province",
      "mnname": "Umnugovi",
      "name": "Ömnögovi",
      "year_established": 1931,
      "area": 165380.47,
      "population": 69187,
      "density": 0.42,
      "zipcode": "46000",
      "capital": "Dalanzadgad",
      "capitalmn": "Даланзадгад",
      "sub_items": [
        {
          "mnname": "Ханбогд",
          "zipcode": "46010",
          "sub_items": [
            { "mnname": "Номгон", "zipcode": "46011" },
            { "mnname": "Баян", "zipcode": "46013" },
            { "mnname": "Жавхлант", "zipcode": "46015" },
            { "mnname": "Гавилууд", "zipcode": "46017" },
            { "mnname": "Хайрхан", "zipcode": "46019" }
          ]
        },
        {
          "mnname": "Манлай",
          "zipcode": "46020",
          "sub_items": [
            { "mnname": "Өгөөмөр", "zipcode": "46021" },
            { "mnname": "Өехий", "zipcode": "46023" },
            { "mnname": "Жаргалант", "zipcode": "46025" },
            { "mnname": "Далай", "zipcode": "46027" }
          ]
        },
        {
          "mnname": "Баян-Овоо",
          "zipcode": "46030",
          "sub_items": [
            { "mnname": "Могой", "zipcode": "46031" },
            { "mnname": "Харзаг", "zipcode": "46033" },
            { "mnname": "Налих", "zipcode": "46035" }
          ]
        },
        {
          "mnname": "Цогтцэций",
          "zipcode": "46040",
          "sub_items": [
            { "mnname": "Билгэх", "zipcode": "46041" },
            { "mnname": "Сийрст", "zipcode": "46043" },
            { "mnname": "Цагаан Овоо", "zipcode": "46045" },
            { "mnname": "Өгөөмөр", "zipcode": "46047" }
          ]
        },
        {
          "mnname": "Номгон",
          "zipcode": "46050",
          "sub_items": [
            { "mnname": "Богт", "zipcode": "46051" },
            { "mnname": "Эмгэн булаг", "zipcode": "46053" },
            { "mnname": "Хармагтай", "zipcode": "46055" },
            { "mnname": "Дэрсэнэ Ус", "zipcode": "46057" },
            { "mnname": "Төхөм", "zipcode": "46059" }
          ]
        },
        {
          "mnname": "Цогт-Овоо",
          "zipcode": "46060",
          "sub_items": [
            { "mnname": "Бортээг", "zipcode": "46061" },
            { "mnname": "Замын шанд", "zipcode": "46063" },
            { "mnname": "Найз", "zipcode": "46065" }
          ]
        },
        {
          "mnname": "Ханхонгор",
          "zipcode": "46070",
          "sub_items": [
            { "mnname": "Хондот", "zipcode": "46071" },
            { "mnname": "Өгөөмөр", "zipcode": "46073" },
            { "mnname": "Жаргалант", "zipcode": "46075" },
            { "mnname": "Мандах", "zipcode": "46077" }
          ]
        },
        {
          "mnname": "Даланзадгад",
          "zipcode": "46080",
          "sub_items": [
            { "mnname": "Цагаан булаг", "zipcode": "46081" },
            { "mnname": "Их Уул", "zipcode": "46082" },
            { "mnname": "Далан", "zipcode": "46083" },
            { "mnname": "Хан-Уул", "zipcode": "46084" },
            { "mnname": "Зүүн сайхан", "zipcode": "46085" },
            { "mnname": "Дунд сайхан", "zipcode": "46086" },
            { "mnname": "Оюут", "zipcode": "46087" },
            { "mnname": "Баруун сайхан", "zipcode": "46089" }
          ]
        },
        {
          "mnname": "Мандал-Овоо",
          "zipcode": "46090",
          "sub_items": [
            { "mnname": "Баянхошуу", "zipcode": "46091" },
            { "mnname": "Өтгөн", "zipcode": "46093" },
            { "mnname": "Мандал", "zipcode": "46095" }
          ]
        },
        {
          "mnname": "Хүрмэн",
          "zipcode": "46100",
          "sub_items": [
            { "mnname": "Хүрмэн", "zipcode": "46101" },
            { "mnname": "Тулга", "zipcode": "46103" },
            { "mnname": "Жанжин", "zipcode": "46105" }
          ]
        },
        {
          "mnname": "Булган",
          "zipcode": "46110",
          "sub_items": [
            { "mnname": "Дал", "zipcode": "46111" },
            { "mnname": "Булган", "zipcode": "46113" },
            { "mnname": "Хавцгайт", "zipcode": "46115" },
            { "mnname": "Дэн", "zipcode": "46117" }
          ]
        },
        {
          "mnname": "Баяндалай",
          "zipcode": "46120",
          "sub_items": [
            { "mnname": "Баян", "zipcode": "46121" },
            { "mnname": "Наран", "zipcode": "46123" },
            { "mnname": "Төхөм", "zipcode": "46125" }
          ]
        },
        {
          "mnname": "Сэврэй",
          "zipcode": "46130",
          "sub_items": [
            { "mnname": "Хоолт", "zipcode": "46131" },
            { "mnname": "Бүйлсэн", "zipcode": "46133" },
            { "mnname": "Сайншанд", "zipcode": "46135" }
          ]
        },
        {
          "mnname": "Ноён",
          "zipcode": "46140",
          "sub_items": [
            { "mnname": "Сайран", "zipcode": "46141" },
            { "mnname": "Ганзагад", "zipcode": "46143" }
          ]
        },
        {
          "mnname": "Гурвантэс",
          "zipcode": "46150",
          "sub_items": [
            { "mnname": "Баясах", "zipcode": "46151" },
            { "mnname": "Гоёот", "zipcode": "46153" },
            { "mnname": "Урт", "zipcode": "46155" },
            { "mnname": "Тост", "zipcode": "46157" },
            { "mnname": "Бага-Овоо", "zipcode": "46159" }
          ]
        }
      ]
    },
    {
      "stat": "province",
      "mnname": "Дундговь",
      "name": "Dundgobi",
      "year_established": 1942,
      "area": 74690.32,
      "population": 47104,
      "density": 0.63,
      "zipcode": "48000",
      "capital": "Mandalgovi",
      "capitalmn": "Мандалговь",
      "sub_items": [
        {
          "mnname": "Өндөршил",
          "zipcode": "48010",
          "sub_items": [
            { "mnname": "Талын нар", "zipcode": "48011" },
            { "mnname": "Цог", "zipcode": "48013" }
          ]
        },
        {
          "mnname": "Баянжаргалан",
          "zipcode": "48020",
          "sub_items": [
            { "mnname": "Шилийн гол", "zipcode": "48021" },
            { "mnname": "Аргатай", "zipcode": "48022" },
            { "mnname": "Энгэр ус", "zipcode": "48023" }
          ]
        },
        {
          "mnname": "Цагаандэлгэр",
          "zipcode": "48030",
          "sub_items": [
            { "mnname": "Дэлгэрэх зам", "zipcode": "48031" },
            { "mnname": "Замын улаан", "zipcode": "48033" },
            { "mnname": "Жаргалан", "zipcode": "48035" },
            { "mnname": "Хараат", "zipcode": "48037" }
          ]
        },
        {
          "mnname": "Өлзийт",
          "zipcode": "48040",
          "sub_items": [
            { "mnname": "Буянт-1", "zipcode": "48041" },
            { "mnname": "Буянт-2", "zipcode": "48043" },
            { "mnname": "Рашаант", "zipcode": "48045" },
            { "mnname": "Дэрт-1", "zipcode": "48047" },
            { "mnname": "Тагт", "zipcode": "48049" },
            { "mnname": "Дэрт-2", "zipcode": "48051" },
            { "mnname": "Чулуут", "zipcode": "48053" },
            { "mnname": "Гурвансайхан", "zipcode": "48055" },
            { "mnname": "Суугаант", "zipcode": "48057" },
            { "mnname": "Дэрсэнэ-Ус", "zipcode": "48059" }
          ]
        },
        {
          "mnname": "Гурвансайхан",
          "zipcode": "48060",
          "sub_items": [
            { "mnname": "Элгэн", "zipcode": "48061" },
            { "mnname": "Гурвансайхан", "zipcode": "48063" },
            { "mnname": "Суугаант", "zipcode": "48065" },
            { "mnname": "Чулуут", "zipcode": "48067" },
            { "mnname": "Дэрсэнэ ус", "zipcode": "48069" }
          ]
        },
        {
          "mnname": "Говьугтаал",
          "zipcode": "48070",
          "sub_items": [
            { "mnname": "Хонгор", "zipcode": "48071" },
            { "mnname": "Морьт", "zipcode": "48073" },
            { "mnname": "Ажирхай", "zipcode": "48075" }
          ]
        },
        {
          "mnname": "Дэрэн",
          "zipcode": "48080",
          "sub_items": [
            { "mnname": "Бумбат", "zipcode": "48081" },
            { "mnname": "Долоод", "zipcode": "48083" },
            { "mnname": "Алаг-Өндөр", "zipcode": "48085" },
            { "mnname": "Саруул", "zipcode": "48087" }
          ]
        },
        {
          "mnname": "Сайнцагаан",
          "zipcode": "48090",
          "sub_items": [
            { "mnname": "Далай", "zipcode": "48091" },
            { "mnname": "Боржигон", "zipcode": "48093" },
            { "mnname": "Айраг", "zipcode": "48095" },
            { "mnname": "Мандал", "zipcode": "48097" },
            { "mnname": "Арвижих", "zipcode": "48099" },
            { "mnname": "Нарлаг", "zipcode": "48101" },
            { "mnname": "Үйзэн", "zipcode": "48103" },
            { "mnname": "Тэвш", "zipcode": "48105" },
            { "mnname": "Наран", "zipcode": "48107" }
          ]
        },
        {
          "mnname": "Дэлгэрцогт",
          "zipcode": "48110",
          "sub_items": [
            { "mnname": "Дэлгэр-Эмт", "zipcode": "48111" },
            { "mnname": "Цахиурт", "zipcode": "48113" },
            { "mnname": "Баянбулаг", "zipcode": "48115" }
          ]
        },
        {
          "mnname": "Луус",
          "zipcode": "48120",
          "sub_items": [
            { "mnname": "Наран", "zipcode": "48121" },
            { "mnname": "Зүлэгтий", "zipcode": "48122" },
            { "mnname": "Суварга", "zipcode": "48123" }
          ]
        },
        {
          "mnname": "Хулд",
          "zipcode": "48130",
          "sub_items": [
            { "mnname": "Шувуутай", "zipcode": "48131" },
            { "mnname": "Олдох", "zipcode": "48133" },
            { "mnname": "Уул", "zipcode": "48135" },
            { "mnname": "Бүлээн", "zipcode": "48137" }
          ]
        },
        {
          "mnname": "Адаацаг",
          "zipcode": "48140",
          "sub_items": [
            { "mnname": "Өвөр урт", "zipcode": "48141" },
            { "mnname": "Тавин", "zipcode": "48143" },
            { "mnname": "Ар урт", "zipcode": "48145" },
            { "mnname": "Сүм", "zipcode": "48147" },
            { "mnname": "Хашаат", "zipcode": "48149" }
          ]
        },
        {
          "mnname": "Эрдэнэдалай",
          "zipcode": "48150",
          "sub_items": [
            { "mnname": "Рашаант", "zipcode": "48151" },
            { "mnname": "Цагаан овоо", "zipcode": "48153" },
            { "mnname": "Сангийн-далай", "zipcode": "48155" },
            { "mnname": "Сумын төв", "zipcode": "48157" },
            { "mnname": "Тэнгэлэг", "zipcode": "48159" },
            { "mnname": "Цавчир", "zipcode": "48161" },
            { "mnname": "Өнгөт", "zipcode": "48163" }
          ]
        },
        {
          "mnname": "Дэлгэрхангай",
          "zipcode": "48170",
          "sub_items": [
            { "mnname": "Толь", "zipcode": "48171" },
            { "mnname": "Сумын төв", "zipcode": "48173" },
            { "mnname": "Ар шавагтай", "zipcode": "48175" },
            { "mnname": "Тарагт", "zipcode": "48177" }
          ]
        },
        {
          "mnname": "Сайхан-Овоо",
          "zipcode": "48180",
          "sub_items": [
            { "mnname": "Төгрөг", "zipcode": "48181" },
            { "mnname": "Найз", "zipcode": "48183" },
            { "mnname": "Онги", "zipcode": "48185" },
            { "mnname": "Мааньт", "zipcode": "48187" },
            { "mnname": "Боршоо", "zipcode": "58191" }
          ]
        }
      ]
    },
    {
      "stat": "province",
      "mnname": "Орхон",
      "name": "Orkhon",
      "year_established": 1994,
      "area": 844.0,
      "population": 107634,
      "density": 128,
      "zipcode": "61000",
      "capital": "Erdenet",
      "capitalmn": "Эрдэнэт",
      "sub_items": [
        {
          "mnname": "Жаргалант",
          "zipcode": "61010",
          "sub_items": [
            { "mnname": "Дулаан-Уул", "zipcode": "61011" },
            { "mnname": "Улаантолгой", "zipcode": "61013" },
            { "mnname": "Жаргалант", "zipcode": "61015" }
          ]
        },
        {
          "mnname": "Баян-Өндөр сум",
          "zipcode": "61020",
          "sub_items": [
            { "mnname": "Баянцагаан", "zipcode": "61021" },
            { "mnname": "Говил", "zipcode": "61023" },
            { "mnname": "Оюут", "zipcode": "61025" },
            { "mnname": "Хүрэнбулаг", "zipcode": "61027" },
            { "mnname": "Зэст", "zipcode": "61029" },
            { "mnname": "Бүрэнбүст", "zipcode": "61031" },
            { "mnname": "Уртбулаг", "zipcode": "61033" },
            { "mnname": "Согоот", "zipcode": "61035" },
            { "mnname": "Дэнж", "zipcode": "61037" },
            { "mnname": "Эрдэнэ", "zipcode": "61038" },
            { "mnname": "Булаг", "zipcode": "61039" },
            { "mnname": "Баянбулаг", "zipcode": "61040" },
            { "mnname": "Цагаанчулуут", "zipcode": "61041" },
            { "mnname": "Шанд", "zipcode": "61043" },
            { "mnname": "Их-залуу", "zipcode": "61044" },
            { "mnname": "Малчин", "zipcode": "61045" },
            { "mnname": "Наран", "zipcode": "61047" },
            { "mnname": "Уурхайчин", "zipcode": "61049" },
            { "mnname": "Рашаант", "zipcode": "61051" },
            { "mnname": "Даваат", "zipcode": "61053" },
            { "mnname": "Яргуйт", "zipcode": "61055" },
            { "mnname": "Уртын гол", "zipcode": "61057" }
          ]
        }
      ]
    },
    {
      "stat": "province",
      "mnname": "Өвөрхангай",
      "name": "Övörkhangai",
      "year_established": 1931,
      "area": 62895.33,
      "population": 116732,
      "density": 1.86,
      "zipcode": "62000",
      "capital": "Arvaikheer",
      "capitalmn": "Арвайхээр",
      "sub_items": [
        {
          "mnname": "Баян-Өндөр",
          "zipcode": "62010",
          "sub_items": [
            { "mnname": "Өвөр зүлэгт", "zipcode": "62011" },
            { "mnname": "Батхаан", "zipcode": "62013" },
            { "mnname": "Хар тойром", "zipcode": "62015" },
            { "mnname": "Бумбат", "zipcode": "62017" },
            { "mnname": "Бөмбий", "zipcode": "62019" }
          ]
        },
        {
          "mnname": "Бүрд",
          "zipcode": "62020",
          "sub_items": [
            { "mnname": "Ар-жаргалант", "zipcode": "62021" },
            { "mnname": "Донгит", "zipcode": "62023" },
            { "mnname": "Онгон", "zipcode": "62025" },
            { "mnname": "Ар-хөшөөт", "zipcode": "62027" },
            { "mnname": "Их-Боригдой", "zipcode": "62029" }
          ]
        },
        {
          "mnname": "Есөнзүйл",
          "zipcode": "62030",
          "sub_items": [
            { "mnname": "Тахилга", "zipcode": "62031" },
            { "mnname": "Мөнхбулаг", "zipcode": "62033" },
            { "mnname": "Эрээн", "zipcode": "62035" },
            { "mnname": "Хайрхан", "zipcode": "62037" }
          ]
        },
        {
          "mnname": "Сант",
          "zipcode": "62040",
          "sub_items": [
            { "mnname": "Цахиурт", "zipcode": "62041" },
            { "mnname": "Улаан-Овоо", "zipcode": "62043" },
            { "mnname": "Залаа", "zipcode": "62045" },
            { "mnname": "Майхан", "zipcode": "62047" },
            { "mnname": "Цариг", "zipcode": "62049" }
          ]
        },
        {
          "mnname": "Өлзийт",
          "zipcode": "62050",
          "sub_items": [
            { "mnname": "Бор-хошуу", "zipcode": "62051" },
            { "mnname": "Аргуйт", "zipcode": "62053" },
            { "mnname": "Гуулин", "zipcode": "62055" },
            { "mnname": "Яргайт", "zipcode": "62057" }
          ]
        },
        {
          "mnname": "Баянгол",
          "zipcode": "62060",
          "sub_items": [
            { "mnname": "Хаяа", "zipcode": "62061" },
            { "mnname": "Цагаан-булан", "zipcode": "62063" },
            { "mnname": "Ширээ", "zipcode": "62065" },
            { "mnname": "Цавын-ихэр", "zipcode": "62067" },
            { "mnname": "Эргэн-дэнж", "zipcode": "62069" },
            { "mnname": "Өнц", "zipcode": "62071" }
          ]
        },
        {
          "mnname": "Төгрөг",
          "zipcode": "62080",
          "sub_items": [
            { "mnname": "Сайн-төгрөг", "zipcode": "62081" },
            { "mnname": "Баян", "zipcode": "62082" },
            { "mnname": "Хоолт", "zipcode": "62083" },
            { "mnname": "Их-ус", "zipcode": "62085" },
            { "mnname": "Мазар", "zipcode": "62087" }
          ]
        },
        {
          "mnname": "Хархорин",
          "zipcode": "62090",
          "sub_items": [
            { "mnname": "Жалбаа", "zipcode": "62091" },
            { "mnname": "Онгоцон-Ухаа", "zipcode": "62093" },
            { "mnname": "Нарийн-хүр", "zipcode": "62095" },
            { "mnname": "Эрдэнэ-толгой", "zipcode": "62097" },
            { "mnname": "Ганган-Орхон", "zipcode": "62099" },
            { "mnname": "Вангийн овоо", "zipcode": "62101" },
            { "mnname": "Шанх", "zipcode": "62103" },
            { "mnname": "Орхон", "zipcode": "62105" }
          ]
        },
        {
          "mnname": "Хужирт сум",
          "zipcode": "62110",
          "sub_items": [
            { "mnname": "Өвөр-модот", "zipcode": "62111" },
            { "mnname": "Дулаан", "zipcode": "62112" },
            { "mnname": "Шунхлай", "zipcode": "62113" },
            { "mnname": "Шивээт", "zipcode": "62115" },
            { "mnname": "Бэрх", "zipcode": "62117" },
            { "mnname": "Уужим", "zipcode": "62119" }
          ]
        },
        {
          "mnname": "Зүүнбаян-Улаан",
          "zipcode": "62120",
          "sub_items": [
            { "mnname": "Дөлгөөн", "zipcode": "62121" },
            { "mnname": "Дэвшил", "zipcode": "62123" },
            { "mnname": "Хад", "zipcode": "62125" },
            { "mnname": "Цахиурт", "zipcode": "62127" },
            { "mnname": "Эмгэд", "zipcode": "62129" },
            { "mnname": "Баян-Улаан", "zipcode": "62131" },
            { "mnname": "Дэвшил", "zipcode": "62133" },
            { "mnname": "Хад", "zipcode": "62135" },
            { "mnname": "Цахиурт", "zipcode": "62137" },
            { "mnname": "Эмгэд", "zipcode": "62139" }
          ]
        },
        {
          "mnname": "Тарагт",
          "zipcode": "62140",
          "sub_items": [
            { "mnname": "Их булаг", "zipcode": "62141" },
            { "mnname": "Алтан тал", "zipcode": "62143" },
            { "mnname": "Урт", "zipcode": "62145" },
            { "mnname": "Туяа", "zipcode": "62147" },
            { "mnname": "Арвайн тал", "zipcode": "62149" },
            { "mnname": "Хүрэмт", "zipcode": "62151" },
            { "mnname": "Алтан-тал", "zipcode": "62153" },
            { "mnname": "Урт", "zipcode": "62155" },
            { "mnname": "Туяа", "zipcode": "62157" },
            { "mnname": "Арвайн-тал", "zipcode": "62159" }
          ]
        },
        {
          "mnname": "Арвайхээр сум",
          "zipcode": "62160",
          "sub_items": [
            { "mnname": "Ягаан толгой", "zipcode": "62161" },
            { "mnname": "Ноён", "zipcode": "62162" },
            { "mnname": "Эмт", "zipcode": "62163" },
            { "mnname": "Зүлэгт", "zipcode": "62164" },
            { "mnname": "Согоот", "zipcode": "62165" },
            { "mnname": "Онги", "zipcode": "62166" },
            { "mnname": "Дэлгэрэхийн дэнж", "zipcode": "62167" },
            { "mnname": "Рашаант", "zipcode": "62169" },
            { "mnname": "Өлзийт", "zipcode": "62171" },
            { "mnname": "Арвайхээр", "zipcode": "62173" },
            { "mnname": "Бурхи", "zipcode": "62175" },
            { "mnname": "Дэлгэрэх", "zipcode": "62177" },
            { "mnname": "Хүйс толгой", "zipcode": "62179" }
          ]
        },
        {
          "mnname": "Гучин-Ус",
          "zipcode": "62180",
          "sub_items": [
            { "mnname": "Хөөвөр", "zipcode": "62181" },
            { "mnname": "Гучин", "zipcode": "62183" },
            { "mnname": "Аргуйт", "zipcode": "62185" },
            { "mnname": "Аргалант", "zipcode": "62187" }
          ]
        },
        {
          "mnname": "Богд",
          "zipcode": "62190",
          "sub_items": [
            { "mnname": "Гүн-Ус", "zipcode": "62191" },
            { "mnname": "Баянтөхөм", "zipcode": "62193" },
            { "mnname": "Далан", "zipcode": "62195" },
            { "mnname": "Ховд", "zipcode": "62197" },
            { "mnname": "Хөөвөр", "zipcode": "62199" },
            { "mnname": "Ялаатай", "zipcode": "62201" },
            { "mnname": "Цагаан толгой", "zipcode": "62203" }
          ]
        },
        {
          "mnname": "Бат-Өлзий",
          "zipcode": "62210",
          "sub_items": [
            { "mnname": "Бүрэгтий", "zipcode": "62211" },
            { "mnname": "Зөрүүлэг", "zipcode": "62213" },
            { "mnname": "Өвт", "zipcode": "62215" },
            { "mnname": "Улаан-Ам", "zipcode": "62217" },
            { "mnname": "Хүйтэн булаг", "zipcode": "62219" }
          ]
        },
        {
          "mnname": "Уянга",
          "zipcode": "62220",
          "sub_items": [
            { "mnname": "Өлт", "zipcode": "62221" },
            { "mnname": "Бөөрөлжүүт", "zipcode": "62223" },
            { "mnname": "Таац", "zipcode": "62225" },
            { "mnname": "Шивээ-Овоо", "zipcode": "62227" },
            { "mnname": "Онги", "zipcode": "62229" },
            { "mnname": "Бадрал", "zipcode": "62231" },
            { "mnname": "Жаргалант", "zipcode": "62233" },
            { "mnname": "Шуранга", "zipcode": "62235" },
            { "mnname": "Дэрсэн хонхор", "zipcode": "62237" },
            { "mnname": "Бурхант", "zipcode": "62239" }
          ]
        },
        {
          "mnname": "Хайрхандулаан",
          "zipcode": "62240",
          "sub_items": [
            { "mnname": "Эмээл", "zipcode": "62241" },
            { "mnname": "Нарт", "zipcode": "62243" },
            { "mnname": "Марзат", "zipcode": "62245" },
            { "mnname": "Дэрсэн хонхор", "zipcode": "62247" },
            { "mnname": "Бурхант", "zipcode": "62249" },
            { "mnname": "Ар агуйт", "zipcode": "62251" },
            { "mnname": "Гучин", "zipcode": "62253" },
            { "mnname": "Аргуйт", "zipcode": "62255" },
            { "mnname": "Шар дов", "zipcode": "62257" }
          ]
        },
        {
          "mnname": "Нарийнтээл",
          "zipcode": "62260",
          "sub_items": [
            { "mnname": "Баянтээг", "zipcode": "62261" },
            { "mnname": "Өндөр хөмөг", "zipcode": "62263" },
            { "mnname": "Цагаан-Овоо", "zipcode": "62265" },
            { "mnname": "Шарга", "zipcode": "62267" }
          ]
        },
        {
          "mnname": "Баруунбаян-Улаан",
          "zipcode": "62270",
          "sub_items": [
            { "mnname": "Өлзийт хошуу", "zipcode": "62271" },
            { "mnname": "Хүүхдийн-Ус", "zipcode": "62273" },
            { "mnname": "Хөөвөр", "zipcode": "62275" },
            { "mnname": "Цагаан-Овоо", "zipcode": "62277" },
            { "mnname": "Баянтээг", "zipcode": "62281" },
            { "mnname": "Өндөр-хөмөг", "zipcode": "62283" },
            { "mnname": "Цагаан-Овоо", "zipcode": "62285" },
            { "mnname": "Шарга", "zipcode": "62287" },
            { "mnname": "Өлзийт хошуу", "zipcode": "62291" },
            { "mnname": "Хүүхэдийн-Ус", "zipcode": "62293" },
            { "mnname": "Хөөвөр", "zipcode": "62295" },
            { "mnname": "Цагаан-Овоо", "zipcode": "62297" }
          ]
        }
      ]
    },
    {
      "stat": "province",
      "mnname": "Булган",
      "name": "Bulgan",
      "year_established": 1938,
      "area": 48733.0,
      "population": 62089,
      "density": 1.27,
      "zipcode": "63000",
      "capital": "Bulgan",
      "capitalmn": "Булган",
      "sub_items": [
        {
          "mnname": "Баяннуур",
          "zipcode": "63010",
          "sub_items": [
            { "mnname": "Өлзийт", "zipcode": "63011" },
            { "mnname": "Шар тал", "zipcode": "63013" }
          ]
        },
        {
          "mnname": "Сэлэнгэ",
          "zipcode": "63020",
          "sub_items": [
            { "mnname": "Сангалтай", "zipcode": "63021" },
            { "mnname": "Сэлэнгэ", "zipcode": "63023" },
            { "mnname": "Ингэт", "zipcode": "63025" },
            { "mnname": "Тарайхтай", "zipcode": "63027" },
            { "mnname": "Таримал", "zipcode": "63029" }
          ]
        },
        {
          "mnname": "Хангал",
          "zipcode": "63030",
          "sub_items": [
            { "mnname": "Сөрт", "zipcode": "63031" },
            { "mnname": "Сумын төв", "zipcode": "63033" },
            { "mnname": "Хялганат", "zipcode": "63035" },
            { "mnname": "Хангал", "zipcode": "63037" }
          ]
        },
        {
          "mnname": "Орхон",
          "zipcode": "63040",
          "sub_items": [
            { "mnname": "Халиун", "zipcode": "63041" },
            { "mnname": "Мааньт", "zipcode": "63043" },
            { "mnname": "Сумын төв", "zipcode": "63045" },
            { "mnname": "Ар булаг", "zipcode": "63047" },
            { "mnname": "Бүхт", "zipcode": "63049" }
          ]
        },
        {
          "mnname": "Бүрэгхангай",
          "zipcode": "63050",
          "sub_items": [
            { "mnname": "Дэрст", "zipcode": "63051" },
            { "mnname": "Цахт", "zipcode": "63053" },
            { "mnname": "Дархан", "zipcode": "63055" },
            { "mnname": "Бумбат", "zipcode": "63057" }
          ]
        },
        {
          "mnname": "Дашинчилэн",
          "zipcode": "63060",
          "sub_items": [
            { "mnname": "Хараат", "zipcode": "63061" },
            { "mnname": "Доргонт", "zipcode": "63063" },
            { "mnname": "Төв", "zipcode": "63065" },
            { "mnname": "Лах", "zipcode": "63067" }
          ]
        },
        {
          "mnname": "Рашаант сум",
          "zipcode": "63070",
          "sub_items": [
            { "mnname": "Улаан Шивээт", "zipcode": "63071" },
            { "mnname": "Аргалхайрхан", "zipcode": "63072" },
            { "mnname": "Хар чулуут", "zipcode": "63073" },
            { "mnname": "Хөгнө Хан", "zipcode": "63075" }
          ]
        },
        {
          "mnname": "Булган",
          "zipcode": "63080",
          "sub_items": [
            { "mnname": "Банзар", "zipcode": "63081" },
            { "mnname": "Жаргалант", "zipcode": "63082" },
            { "mnname": "Хүрэмт", "zipcode": "63083" },
            { "mnname": "Мааньт", "zipcode": "63085" },
            { "mnname": "Бумбат", "zipcode": "63086" },
            { "mnname": "Хужирт", "zipcode": "63087" },
            { "mnname": "Тээг", "zipcode": "63089" }
          ]
        },
        {
          "mnname": "Бугат",
          "zipcode": "63090",
          "sub_items": [
            { "mnname": "Бугат", "zipcode": "63091" },
            { "mnname": "Баянтөгөл", "zipcode": "63093" },
            { "mnname": "Ханжаргалант", "zipcode": "63095" }
          ]
        },
        {
          "mnname": "Тэшиг",
          "zipcode": "63100",
          "sub_items": [
            { "mnname": "Хужирт", "zipcode": "63101" },
            { "mnname": "Эрэн", "zipcode": "63103" },
            { "mnname": "Жаргалант", "zipcode": "63105" },
            { "mnname": "Харгал", "zipcode": "63107" },
            { "mnname": "Далан", "zipcode": "63109" }
          ]
        },
        {
          "mnname": "Хишиг-Өндөр",
          "zipcode": "63110",
          "sub_items": [
            { "mnname": "Банзар", "zipcode": "63111" },
            { "mnname": "Хүрэмт", "zipcode": "63113" },
            { "mnname": "Мааньт", "zipcode": "63115" },
            { "mnname": "Жаргалант", "zipcode": "63117" },
            { "mnname": "Тээг", "zipcode": "63119" }
          ]
        },
        {
          "mnname": "Гурванбулаг",
          "zipcode": "63120",
          "sub_items": [
            { "mnname": "Хөгнө", "zipcode": "63121" },
            { "mnname": "Агьт", "zipcode": "63123" },
            { "mnname": "Хулст", "zipcode": "63125" },
            { "mnname": "Авзага", "zipcode": "63127" },
            { "mnname": "Бэрх", "zipcode": "63129" },
            { "mnname": "Тогоо", "zipcode": "63131" },
            { "mnname": "Рашаант", "zipcode": "63133" },
            { "mnname": "Ачуут", "zipcode": "63135" },
            { "mnname": "Хужирт", "zipcode": "63137" }
          ]
        },
        {
          "mnname": "Хутаг-Өндөр",
          "zipcode": "63140",
          "sub_items": [
            { "mnname": "Хантай", "zipcode": "63141" },
            { "mnname": "Хонгор", "zipcode": "63143" },
            { "mnname": "Сумын төв", "zipcode": "63145" },
            { "mnname": "Уньт", "zipcode": "63147" },
            { "mnname": "Тээл", "zipcode": "63149" }
          ]
        },
        {
          "mnname": "Могод",
          "zipcode": "63150",
          "sub_items": [
            { "mnname": "Баянгол", "zipcode": "63151" },
            { "mnname": "Баян-Уул", "zipcode": "63153" },
            { "mnname": "Эрхт", "zipcode": "63155" },
            { "mnname": "Баясгалант", "zipcode": "63157" },
            { "mnname": "Жаргалант", "zipcode": "63159" }
          ]
        },
        {
          "mnname": "Сайхан",
          "zipcode": "63160",
          "sub_items": [
            { "mnname": "Ундрах", "zipcode": "63161" },
            { "mnname": "Хүрэмт", "zipcode": "63163" },
            { "mnname": "Угалз", "zipcode": "63165" },
            { "mnname": "Мануулт", "zipcode": "63167" },
            { "mnname": "Сайхан Овоо", "zipcode": "63169" },
            { "mnname": "Хульж", "zipcode": "63171" }
          ]
        },
        {
          "mnname": "Баян-Агт",
          "zipcode": "63180",
          "sub_items": [
            { "mnname": "Дулаанхаан", "zipcode": "63181" },
            { "mnname": "Халтар", "zipcode": "63183" },
            { "mnname": "Хүрэмт", "zipcode": "63185" },
            { "mnname": "Баянхайрхан", "zipcode": "63187" },
            { "mnname": "Баянзүрх", "zipcode": "63189" },
            { "mnname": "Шарга", "zipcode": "63191" },
            { "mnname": "Хөгнө", "zipcode": "63212" }
          ]
        }
      ]
    },
    {
      "stat": "province",
      "mnname": "Баянхонгор",
      "name": "Bayankhongor",
      "year_established": 1941,
      "area": 115977.8,
      "population": 88672,
      "density": 0.76,
      "zipcode": "64000",
      "capital": "Bayankhongor",
      "capitalmn": "Баянхонгор",
      "sub_items": [
        {
          "mnname": "Баянлиг",
          "zipcode": "64010",
          "sub_items": [
            { "mnname": "Бага-баян", "zipcode": "64011" },
            { "mnname": "Халбагант", "zipcode": "64013" },
            { "mnname": "Баян-Аараг", "zipcode": "64015" },
            { "mnname": "Хатан-суудал", "zipcode": "64017" },
            { "mnname": "Их-баян", "zipcode": "64019" }
          ]
        },
        {
          "mnname": "Эрдэнэцогт",
          "zipcode": "64020",
          "sub_items": [
            { "mnname": "Жанжин", "zipcode": "64021" },
            { "mnname": "Эрхэт хайрхан", "zipcode": "64022" },
            { "mnname": "Өвгөнжаргалант", "zipcode": "64023" },
            { "mnname": "Цагаан-дэнж", "zipcode": "64025" },
            { "mnname": "Ямаат", "zipcode": "64027" },
            { "mnname": "Сэнжит", "zipcode": "64029" }
          ]
        },
        {
          "mnname": "Өлзийт",
          "zipcode": "64030",
          "sub_items": [
            { "mnname": "Ёлын ам", "zipcode": "64031" },
            { "mnname": "Худаг урт", "zipcode": "64033" },
            { "mnname": "Бийр", "zipcode": "64035" },
            { "mnname": "Байн ам", "zipcode": "64037" },
            { "mnname": "Улаан уул", "zipcode": "64039" },
            { "mnname": "Бурхант", "zipcode": "64041" },
            { "mnname": "Дуурсах", "zipcode": "64043" },
            { "mnname": "Гэгээн шавь", "zipcode": "64045" }
          ]
        },
        {
          "mnname": "Богд",
          "zipcode": "64050",
          "sub_items": [
            { "mnname": "Цэлгэр", "zipcode": "64051" },
            { "mnname": "Луугар", "zipcode": "64053" },
            { "mnname": "Хөөвөр", "zipcode": "64055" },
            { "mnname": "Хориулт", "zipcode": "64057" },
            { "mnname": "Буянт", "zipcode": "64059" },
            { "mnname": "Алтай", "zipcode": "64061" }
          ]
        },
        {
          "mnname": "Жинст",
          "zipcode": "64070",
          "sub_items": [
            { "mnname": "Цагаан ус", "zipcode": "64071" },
            { "mnname": "Бодь", "zipcode": "64073" },
            { "mnname": "Хүйс", "zipcode": "64075" },
            { "mnname": "Хөнөг", "zipcode": "64077" },
            { "mnname": "Уу-булан", "zipcode": "64079" }
          ]
        },
        {
          "mnname": "Баян-Овоо",
          "zipcode": "64080",
          "sub_items": [
            { "mnname": "Асгамба", "zipcode": "64081" },
            { "mnname": "Мандал хайрхан", "zipcode": "64083" },
            { "mnname": "Хөх бүрд", "zipcode": "64085" },
            { "mnname": "Уран хайрхан", "zipcode": "64087" }
          ]
        },
        {
          "mnname": "Баянхонгор сум",
          "zipcode": "64090",
          "sub_items": [
            { "mnname": "Цагаан-ус", "zipcode": "64091" },
            { "mnname": "Шаргалжуут", "zipcode": "64093" },
            { "mnname": "Цагаанчулуут", "zipcode": "64095" },
            { "mnname": "Цахир", "zipcode": "64097" },
            { "mnname": "Есөн булаг", "zipcode": "64098" },
            { "mnname": "Угалз", "zipcode": "64099" },
            { "mnname": "Номгон", "zipcode": "64101" },
            { "mnname": "Дуурсах", "zipcode": "64103" },
            { "mnname": "Гэгээн шавь", "zipcode": "64105" },
            { "mnname": "Рашаант", "zipcode": "64107" },
            { "mnname": "Рашаант", "zipcode": "64107" }
          ]
        },
        {
          "mnname": "Галуут",
          "zipcode": "64110",
          "sub_items": [
            { "mnname": "Хайрхан", "zipcode": "64111" },
            { "mnname": "Сүмбэр", "zipcode": "64113" },
            { "mnname": "Баян хошуу", "zipcode": "64115" },
            { "mnname": "Мандал", "zipcode": "64117" },
            { "mnname": "Баяннуур", "zipcode": "64119" },
            { "mnname": "Үнэгт", "zipcode": "64121" },
            { "mnname": "Улаансайр", "zipcode": "64123" },
            { "mnname": "Задгай", "zipcode": "64125" },
            { "mnname": "Хотын-булан", "zipcode": "64127" }
          ]
        },
        {
          "mnname": "Баянговь",
          "zipcode": "64130",
          "sub_items": [
            { "mnname": "Хэлтгий булаг", "zipcode": "64133" },
            { "mnname": "Өргөн", "zipcode": "64135" },
            { "mnname": "Өрхт", "zipcode": "64137" },
            { "mnname": "Цоохор", "zipcode": "64139" },
            { "mnname": "Залаа", "zipcode": "64141" },
            { "mnname": "Баянбулаг", "zipcode": "64143" }
          ]
        },
        {
          "mnname": "Баацагаан",
          "zipcode": "64150",
          "sub_items": [
            { "mnname": "Буйлсан", "zipcode": "64151" },
            { "mnname": "Оройн бууц", "zipcode": "64153" },
            { "mnname": "Зүүн хаяа", "zipcode": "64155" },
            { "mnname": "Баянсайр", "zipcode": "64157" },
            { "mnname": "Могой", "zipcode": "64159" },
            { "mnname": "Товгор", "zipcode": "64161" },
            { "mnname": "Баянбулаг", "zipcode": "64163" },
            { "mnname": "Өргөн", "zipcode": "64165" },
            { "mnname": "Өрхт", "zipcode": "64167" },
            { "mnname": "Цоохор", "zipcode": "64169" }
          ]
        },
        {
          "mnname": "Бөмбөгөр",
          "zipcode": "64170",
          "sub_items": [
            { "mnname": "Хөх толгой", "zipcode": "64171" },
            { "mnname": "Улаан сайр", "zipcode": "64173" },
            { "mnname": "Задгай", "zipcode": "64175" },
            { "mnname": "Хотын булан", "zipcode": "64177" }
          ]
        },
        {
          "mnname": "Жаргалант",
          "zipcode": "64180",
          "sub_items": [
            { "mnname": "Нам толгой", "zipcode": "64181" },
            { "mnname": "Хөндлөн булаг", "zipcode": "64183" },
            { "mnname": "Эмээлтолгой", "zipcode": "64185" },
            { "mnname": "Өлзийт өндөр", "zipcode": "64187" }
          ]
        },
        {
          "mnname": "Шинэжинст",
          "zipcode": "64190",
          "sub_items": [
            { "mnname": "Эрдэнэшанд", "zipcode": "64191" },
            { "mnname": "Зараа", "zipcode": "64193" },
            { "mnname": "Уртын гол", "zipcode": "64195" },
            { "mnname": "Эхэн хавцгай", "zipcode": "64197" }
          ]
        },
        {
          "mnname": "Заг",
          "zipcode": "64200",
          "sub_items": [
            { "mnname": "Чандмань Овоо", "zipcode": "64201" },
            { "mnname": "Залаа Овоо", "zipcode": "64203" },
            { "mnname": "Баян булаг", "zipcode": "64205" },
            { "mnname": "Баян Улаан", "zipcode": "64207" }
          ]
        },
        {
          "mnname": "Баянцагаан",
          "zipcode": "64210",
          "sub_items": [
            { "mnname": "Цэцэн", "zipcode": "64211" },
            { "mnname": "Баянбулаг", "zipcode": "64213" },
            { "mnname": "Жаргалант", "zipcode": "64215" },
            { "mnname": "Дэлгэрэх", "zipcode": "64217" },
            { "mnname": "Гичгэнэ", "zipcode": "64219" }
          ]
        },
        {
          "mnname": "Бууцагаан",
          "zipcode": "64220",
          "sub_items": [
            { "mnname": "Баянбүрд", "zipcode": "64221" },
            { "mnname": "Наран", "zipcode": "64223" },
            { "mnname": "Тэмээт", "zipcode": "64225" },
            { "mnname": "Буянт", "zipcode": "64226" },
            { "mnname": "Баян", "zipcode": "64227" },
            { "mnname": "Өлзийт", "zipcode": "64229" }
          ]
        },
        {
          "mnname": "Гурванбулаг",
          "zipcode": "64230",
          "sub_items": [
            { "mnname": "Давааны ам", "zipcode": "64231" },
            { "mnname": "Буга", "zipcode": "64233" },
            { "mnname": "Хөвийн ам", "zipcode": "64235" },
            { "mnname": "Цэнгэл", "zipcode": "64237" },
            { "mnname": "Пионер толгой", "zipcode": "64239" }
          ]
        },
        {
          "mnname": "Хүрээмарал",
          "zipcode": "64240",
          "sub_items": [
            { "mnname": "Хөх бүрд", "zipcode": "64241" },
            { "mnname": "Цорж", "zipcode": "64243" },
            { "mnname": "Дэлгэр мөрөн", "zipcode": "64245" },
            { "mnname": "Норовлин", "zipcode": "64247" },
            { "mnname": "Сонор", "zipcode": "64249" }
          ]
        },
        {
          "mnname": "Баян-Өндөр",
          "zipcode": "64250",
          "sub_items": [
            { "mnname": "Элгэн", "zipcode": "64251" },
            { "mnname": "Идрэн", "zipcode": "64252" },
            { "mnname": "Булган", "zipcode": "64253" },
            { "mnname": "Улаан үзүүр", "zipcode": "64255" }
          ]
        },
        {
          "mnname": "Баянбулаг",
          "zipcode": "64260",
          "sub_items": [
            { "mnname": "Хангал", "zipcode": "64261" },
            { "mnname": "Жаргалант", "zipcode": "64263" },
            { "mnname": "Бүрд", "zipcode": "64265" },
            { "mnname": "Сангийн-далай", "zipcode": "64267" }
          ]
        }
      ]
    },
    {
      "stat": "province",
      "mnname": "Архангай",
      "name": "Arkhangai",
      "year_established": 1931,
      "area": 55313.82,
      "population": 94994,
      "density": 1.72,
      "zipcode": "65000",
      "capital": "Tsetserleg khot",
      "capitalmn": "Цэцэрлэг хот",
      "sub_items": [
        {
          "mnname": "Хашаат",
          "zipcode": "65010",
          "sub_items": [
            { "mnname": "Номгон", "zipcode": "65011" },
            { "mnname": "Жаргалант", "zipcode": "65013" },
            { "mnname": "Баян", "zipcode": "65015" },
            { "mnname": "Цагаан хад", "zipcode": "65017" },
            { "mnname": "Цайдам", "zipcode": "65019" }
          ]
        },
        {
          "mnname": "Өлгийнуур",
          "zipcode": "65020",
          "sub_items": [
            { "mnname": "Орхон", "zipcode": "65021" },
            { "mnname": "Өгий", "zipcode": "65023" },
            { "mnname": "Зэгстэй", "zipcode": "65025" },
            { "mnname": "Дойт", "zipcode": "65027" },
            { "mnname": "Тоглох", "zipcode": "65029" }
          ]
        },
        {
          "mnname": "Өлзийт",
          "zipcode": "65030",
          "sub_items": [
            { "mnname": "Ямаат", "zipcode": "65031" },
            { "mnname": "Хөшөөт", "zipcode": "65033" },
            { "mnname": "Бодонт", "zipcode": "65035" },
            { "mnname": "Байшир", "zipcode": "65037" }
          ]
        },
        {
          "mnname": "Хотонт",
          "zipcode": "65040",
          "sub_items": [
            { "mnname": "Бургалтай", "zipcode": "65041" },
            { "mnname": "Улаан-Чулуу", "zipcode": "65043" },
            { "mnname": "Хотонт", "zipcode": "65045" },
            { "mnname": "Орхон", "zipcode": "65047" },
            { "mnname": "Хөөвөр", "zipcode": "65049" },
            { "mnname": "Өндөр сант", "zipcode": "65051" }
          ]
        },
        {
          "mnname": "Хайрхан",
          "zipcode": "65060",
          "sub_items": [
            { "mnname": "Могой", "zipcode": "65061" },
            { "mnname": "Жарантай", "zipcode": "65063" },
            { "mnname": "Өгөөмөр", "zipcode": "65065" },
            { "mnname": "Асгат", "zipcode": "65067" },
            { "mnname": "Хайрхан", "zipcode": "65069" }
          ]
        },
        {
          "mnname": "Төвшрүүлэх",
          "zipcode": "65070",
          "sub_items": [
            { "mnname": "Баян-Өндөр", "zipcode": "65071" },
            { "mnname": "Жаарай", "zipcode": "65073" },
            { "mnname": "Эрдэнэтолгой", "zipcode": "65075" },
            { "mnname": "Сөрт", "zipcode": "65077" }
          ]
        },
        {
          "mnname": "Цэнхэр",
          "zipcode": "65080",
          "sub_items": [
            { "mnname": "Буйлан", "zipcode": "65081" },
            { "mnname": "Тамир", "zipcode": "65083" },
            { "mnname": "Алтан Овоо", "zipcode": "65085" },
            { "mnname": "Цэнхэр", "zipcode": "65087" },
            { "mnname": "Цэцэрлэг", "zipcode": "65089" },
            { "mnname": "Орхон", "zipcode": "65091" },
            { "mnname": "4-р баг", "zipcode": "65093" },
            { "mnname": "5-р баг", "zipcode": "65095" },
            { "mnname": "3-р баг", "zipcode": "65097" },
            { "mnname": "2-р баг", "zipcode": "65099" }
          ]
        },
        {
          "mnname": "Батцэнгэл",
          "zipcode": "65100",
          "sub_items": [
            { "mnname": "Хөнөг", "zipcode": "65101" },
            { "mnname": "Улаан чулуу", "zipcode": "65103" },
            { "mnname": "Дайр бор", "zipcode": "65105" },
            { "mnname": "Цац", "zipcode": "65107" },
            { "mnname": "Дэл", "zipcode": "65109" },
            { "mnname": "Баян Уул", "zipcode": "65111" },
            { "mnname": "Улаан-Чулуу", "zipcode": "65113" },
            { "mnname": "Дайр-бор", "zipcode": "65115" },
            { "mnname": "Цац", "zipcode": "65117" },
            { "mnname": "Дэл", "zipcode": "65119" }
          ]
        },
        {
          "mnname": "Булган",
          "zipcode": "65120",
          "sub_items": [
            { "mnname": "Баянбулаг", "zipcode": "65121" },
            { "mnname": "Тамир", "zipcode": "65123" },
            { "mnname": "Зуунмод", "zipcode": "65125" },
            { "mnname": "Тусгалт", "zipcode": "65127" }
          ]
        },
        {
          "mnname": "Эрдэнэбулган сум",
          "zipcode": "65130",
          "sub_items": [
            { "mnname": "Цагаан дэл", "zipcode": "65131" },
            { "mnname": "Бор толгой", "zipcode": "65133" },
            { "mnname": "Наранбулаг", "zipcode": "65135" },
            { "mnname": "Цагдуулт", "zipcode": "65137" },
            { "mnname": "Арслан цохио", "zipcode": "65139" },
            { "mnname": "Цагаан даваа", "zipcode": "65141" },
            { "mnname": "Тамир", "zipcode": "65143" }
          ]
        },
        {
          "mnname": "Эрдэнэмандал",
          "zipcode": "65150",
          "sub_items": [
            { "mnname": "Идэр-Улаан", "zipcode": "65151" },
            { "mnname": "Тээл", "zipcode": "65153" },
            { "mnname": "Алаг Уул", "zipcode": "65155" },
            { "mnname": "Өлзийт", "zipcode": "65157" },
            { "mnname": "Хан Өндөр", "zipcode": "65159" },
            { "mnname": "Эрдэнэ Уул", "zipcode": "65161" }
          ]
        },
        {
          "mnname": "Их тамир",
          "zipcode": "65170",
          "sub_items": [
            { "mnname": "Бугат", "zipcode": "65171" },
            { "mnname": "Эрдэнэтолгой", "zipcode": "65173" },
            { "mnname": "Тайхар", "zipcode": "65175" },
            { "mnname": "Борт", "zipcode": "65177" },
            { "mnname": "Хан-Өндөр", "zipcode": "65179" },
            { "mnname": "Хөхнуур", "zipcode": "65181" }
          ]
        },
        {
          "mnname": "Цэцэрлэг",
          "zipcode": "65190",
          "sub_items": [
            { "mnname": "Хонгорж", "zipcode": "65191" },
            { "mnname": "Их-Булаг", "zipcode": "65193" },
            { "mnname": "Хужирт", "zipcode": "65195" },
            { "mnname": "Туулант", "zipcode": "65197" },
            { "mnname": "Чулуут", "zipcode": "65199" }
          ]
        },
        {
          "mnname": "Жаргалант",
          "zipcode": "65200",
          "sub_items": [
            { "mnname": "Зуслан", "zipcode": "65201" },
            { "mnname": "Баянцагаан", "zipcode": "65203" },
            { "mnname": "Эрдэнэ уул", "zipcode": "65205" },
            { "mnname": "Асайт", "zipcode": "65207" },
            { "mnname": "Хоолт", "zipcode": "65209" }
          ]
        },
        {
          "mnname": "Өндөр-Улаан",
          "zipcode": "65210",
          "sub_items": [
            { "mnname": "Хануй", "zipcode": "65211" },
            { "mnname": "Донгой", "zipcode": "65213" },
            { "mnname": "Азарга", "zipcode": "65215" },
            { "mnname": "Тээл", "zipcode": "65217" },
            { "mnname": "Бэлхи", "zipcode": "65219" }
          ]
        },
        {
          "mnname": "Чулуут",
          "zipcode": "65220",
          "sub_items": [
            { "mnname": "Хайрхан", "zipcode": "65221" },
            { "mnname": "Хүрэм", "zipcode": "65223" },
            { "mnname": "Халуун ус", "zipcode": "65225" },
            { "mnname": "Зуунмод", "zipcode": "65227" },
            { "mnname": "Өлзийт гол", "zipcode": "65229" }
          ]
        },
        {
          "mnname": "Тариат",
          "zipcode": "65230",
          "sub_items": [
            { "mnname": "Мөрөн", "zipcode": "65231" },
            { "mnname": "Алтайд", "zipcode": "65233" },
            { "mnname": "Бөөрөлжүүт", "zipcode": "65235" },
            { "mnname": "Хорго", "zipcode": "65237" },
            { "mnname": "Цагааннуур", "zipcode": "65239" },
            { "mnname": "Тэрх", "zipcode": "65241" },
            { "mnname": "Суман", "zipcode": "65243" },
            { "mnname": "Халуун-ус", "zipcode": "65245" },
            { "mnname": "Зуун-Мод", "zipcode": "65247" },
            { "mnname": "Өлзийт-гол", "zipcode": "65249" }
          ]
        },
        {
          "mnname": "Хангай",
          "zipcode": "65250",
          "sub_items": [
            { "mnname": "Гичгэнэ", "zipcode": "65251" },
            { "mnname": "Баян-Улаан", "zipcode": "65253" },
            { "mnname": "Ноён хангай", "zipcode": "65255" },
            { "mnname": "Ар баясгалан", "zipcode": "65257" },
            { "mnname": "Чандмань", "zipcode": "65259" },
            { "mnname": "Тэрх", "zipcode": "65261" }
          ]
        },
        {
          "mnname": "Цахир сум",
          "zipcode": "65270",
          "sub_items": [
            { "mnname": "Цахир", "zipcode": "65271" },
            { "mnname": "Хан-Уул", "zipcode": "65273" },
            { "mnname": "Баянгол", "zipcode": "65275" },
            { "mnname": "Жинст", "zipcode": "65277" }
          ]
        }
      ]
    },
    {
      "stat": "province",
      "mnname": "Хөвсгөл",
      "name": "Khövsgöl",
      "year_established": 1931,
      "area": 100628.82,
      "population": 135095,
      "density": 1.34,
      "zipcode": "67000",
      "capital": "Murun",
      "capitalmn": "Мөрөн",
      "sub_items": [
        {
          "mnname": "Тариалан",
          "zipcode": "67010",
          "sub_items": [
            { "mnname": "Ар тархи", "zipcode": "67011" },
            { "mnname": "Таван толгой", "zipcode": "67013" },
            { "mnname": "Мандал", "zipcode": "67015" },
            { "mnname": "Давааны ар", "zipcode": "67017" },
            { "mnname": "Сэлэнгэ", "zipcode": "67019" },
            { "mnname": "Баянхошуу", "zipcode": "67021" }
          ]
        },
        {
          "mnname": "Эрдэнэбулган",
          "zipcode": "67030",
          "sub_items": [
            { "mnname": "Зэрлэг", "zipcode": "67031" },
            { "mnname": "Удган", "zipcode": "67033" },
            { "mnname": "Булган тал", "zipcode": "67035" },
            { "mnname": "Дуурга", "zipcode": "67037" },
            { "mnname": "Бөөрөлж", "zipcode": "67039" }
          ]
        },
        {
          "mnname": "Цагаан-Үүр",
          "zipcode": "67040",
          "sub_items": [
            { "mnname": "Уйлган", "zipcode": "67041" },
            { "mnname": "Булган", "zipcode": "67043" },
            { "mnname": "Үүр", "zipcode": "67045" },
            { "mnname": "Дархит", "zipcode": "67047" }
          ]
        },
        {
          "mnname": "Их-Уул",
          "zipcode": "67050",
          "sub_items": [
            { "mnname": "Их-Уул", "zipcode": "67051" },
            { "mnname": "Мандал", "zipcode": "67053" },
            { "mnname": "Асгат", "zipcode": "67055" },
            { "mnname": "Сэлэнгэ", "zipcode": "67057" },
            { "mnname": "Шивээ", "zipcode": "67059" }
          ]
        },
        {
          "mnname": "Рашаант",
          "zipcode": "67060",
          "sub_items": [
            { "mnname": "Их-ац", "zipcode": "67061" },
            { "mnname": "Энх тал", "zipcode": "67063" },
            { "mnname": "Тээл 1-р баг", "zipcode": "67065" },
            { "mnname": "Цэнгэл", "zipcode": "67067" },
            { "mnname": "Талын ус", "zipcode": "67069" }
          ]
        },
        {
          "mnname": "Ханх",
          "zipcode": "67070",
          "sub_items": [
            { "mnname": "Тураг", "zipcode": "67071" },
            { "mnname": "Турт /төвийн баг/", "zipcode": "67073" },
            { "mnname": "Хороо", "zipcode": "67075" }
          ]
        },
        {
          "mnname": "Чадмань-Өндөр",
          "zipcode": "67080",
          "sub_items": [
            { "mnname": "Шивэрт", "zipcode": "67081" },
            { "mnname": "Хөхөө", "zipcode": "67083" },
            { "mnname": "Улаан асга", "zipcode": "67085" },
            { "mnname": "Ёлгос", "zipcode": "67087" },
            { "mnname": "Хайрхан толгой", "zipcode": "67088" }
          ]
        },
        {
          "mnname": "Түнэл",
          "zipcode": "67090",
          "sub_items": [
            { "mnname": "Зуны гол", "zipcode": "67091" },
            { "mnname": "Навчилтай", "zipcode": "67093" },
            { "mnname": "Булаг", "zipcode": "67095" },
            { "mnname": "Бийж", "zipcode": "67097" },
            { "mnname": "Баян Эрхэт", "zipcode": "67099" },
            { "mnname": "Алтгана", "zipcode": "67101" }
          ]
        },
        {
          "mnname": "Тосонцэнгэл",
          "zipcode": "67110",
          "sub_items": [
            { "mnname": "Мухар хөндий", "zipcode": "67111" },
            { "mnname": "Сэлэнгэ", "zipcode": "67113" },
            { "mnname": "Цэнгэл", "zipcode": "67115" },
            { "mnname": "Сүүл  Улаан", "zipcode": "67117" },
            { "mnname": "Тээл", "zipcode": "67119" }
          ]
        },
        {
          "mnname": "Мөрөн сум",
          "zipcode": "67120",
          "sub_items": [
            { "mnname": "Үерт", "zipcode": "67121" },
            { "mnname": "Наран", "zipcode": "67122" },
            { "mnname": "Уран дөш", "zipcode": "67123" },
            { "mnname": "Баян", "zipcode": "67124" },
            { "mnname": "Элст", "zipcode": "67125" },
            { "mnname": "Мандал", "zipcode": "67127" },
            { "mnname": "Уст", "zipcode": "67129" },
            { "mnname": "Дулаан", "zipcode": "67131" },
            { "mnname": "Эрхэл", "zipcode": "67132" },
            { "mnname": "Хужирт", "zipcode": "67133" },
            { "mnname": "Сүх", "zipcode": "67135" },
            { "mnname": "Нисэх", "zipcode": "67137" },
            { "mnname": "Эрчим", "zipcode": "67138" },
            { "mnname": "Жилчиг", "zipcode": "67139" }
          ]
        },
        {
          "mnname": "Алаг-Эрдэнэ",
          "zipcode": "67140",
          "sub_items": [
            { "mnname": "Цагаан бургас", "zipcode": "67141" },
            { "mnname": "Хатгал тосгон", "zipcode": "67143" },
            { "mnname": "Яргис", "zipcode": "67145" },
            { "mnname": "Манхан", "zipcode": "67147" },
            { "mnname": "Шувуут", "zipcode": "67149" },
            { "mnname": "Ужиг", "zipcode": "67151" }
          ]
        },
        {
          "mnname": "Төмөрбулаг",
          "zipcode": "67160",
          "sub_items": [
            { "mnname": "Тариат", "zipcode": "67161" },
            { "mnname": "Нарийн", "zipcode": "67163" },
            { "mnname": "Жаргалант", "zipcode": "67165" },
            { "mnname": "Бүгдгээн", "zipcode": "67167" },
            { "mnname": "Тээл", "zipcode": "67169" }
          ]
        },
        {
          "mnname": "Рэнчинлхүмбэ",
          "zipcode": "67170",
          "sub_items": [
            { "mnname": "Далайн зах", "zipcode": "67171" },
            { "mnname": "Ёлт", "zipcode": "67173" },
            { "mnname": "Ходон", "zipcode": "67175" },
            { "mnname": "Зөөлөн", "zipcode": "67177" },
            { "mnname": "Хоолойн зах", "zipcode": "67179" },
            { "mnname": "Хөндий", "zipcode": "67181" }
          ]
        },
        {
          "mnname": "Галт",
          "zipcode": "67190",
          "sub_items": [
            { "mnname": "Зүрх", "zipcode": "67191" },
            { "mnname": "Хужирт", "zipcode": "67193" },
            { "mnname": "Рашаант", "zipcode": "67195" },
            { "mnname": "Галт", "zipcode": "67197" },
            { "mnname": "Нүхт", "zipcode": "67199" }
          ]
        },
        {
          "mnname": "Арбулаг",
          "zipcode": "67200",
          "sub_items": [
            { "mnname": "Хавтага", "zipcode": "67201" },
            { "mnname": "Сүмбэр", "zipcode": "67203" },
            { "mnname": "Уртбулаг", "zipcode": "67205" },
            { "mnname": "Тарганнуур", "zipcode": "67207" },
            { "mnname": "Бор гол", "zipcode": "67209" },
            { "mnname": "Бэл булаг", "zipcode": "67211" }
          ]
        },
        {
          "mnname": "Бүрэнтогтох",
          "zipcode": "67220",
          "sub_items": [
            { "mnname": "Эрчим", "zipcode": "67221" },
            { "mnname": "Туяа", "zipcode": "67223" },
            { "mnname": "Баянхошуу", "zipcode": "67225" },
            { "mnname": "Их уул", "zipcode": "67227" },
            { "mnname": "Сангийн далай", "zipcode": "67229" },
            { "mnname": "Бүрэнхаан", "zipcode": "67231" }
          ]
        },
        {
          "mnname": "Шинэ-Идэр",
          "zipcode": "67240",
          "sub_items": [
            { "mnname": "Баян Зүрх", "zipcode": "67241" },
            { "mnname": "Нүхт", "zipcode": "67243" },
            { "mnname": "Баяннуур", "zipcode": "67245" },
            { "mnname": "Сангийн Далай", "zipcode": "67247" }
          ]
        },
        {
          "mnname": "Жаргалант",
          "zipcode": "67250",
          "sub_items": [
            { "mnname": "Цагаан бургас", "zipcode": "67251" },
            { "mnname": "Харгана", "zipcode": "67253" },
            { "mnname": "Оргил", "zipcode": "67255" },
            { "mnname": "Той", "zipcode": "67257" },
            { "mnname": "Цэцүүх", "zipcode": "67259" }
          ]
        },
        {
          "mnname": "Цагааннуур",
          "zipcode": "67260",
          "sub_items": [
            { "mnname": "Төв", "zipcode": "67261" },
            { "mnname": "Зүүн тайга", "zipcode": "67263" }
          ]
        },
        {
          "mnname": "Улаан-Уул",
          "zipcode": "67270",
          "sub_items": [
            { "mnname": "Шивлэг", "zipcode": "67271" },
            { "mnname": "Тоом", "zipcode": "67273" },
            { "mnname": "Төгөл", "zipcode": "67275" },
            { "mnname": "Соёо", "zipcode": "67277" },
            { "mnname": "Мунгараг", "zipcode": "67279" }
          ]
        },
        {
          "mnname": "Баянзүрх",
          "zipcode": "67290",
          "sub_items": [
            { "mnname": "Тоом", "zipcode": "67291" },
            { "mnname": "Эмт", "zipcode": "67293" },
            { "mnname": "Бэлтэс", "zipcode": "67295" },
            { "mnname": "Хайс", "zipcode": "67297" },
            { "mnname": "Агар", "zipcode": "67299" }
          ]
        },
        {
          "mnname": "Цагаан-Уул",
          "zipcode": "67300",
          "sub_items": [
            { "mnname": "Жаргалант", "zipcode": "67301" },
            { "mnname": "Тосон баг", "zipcode": "67303" },
            { "mnname": "Өвгөд", "zipcode": "67305" },
            { "mnname": "Шарга", "zipcode": "67307" },
            { "mnname": "Хужирт", "zipcode": "67309" },
            { "mnname": "Агар", "zipcode": "67311" }
          ]
        },
        {
          "mnname": "Цэцэрлэг",
          "zipcode": "67320",
          "sub_items": [
            { "mnname": "Жаргалант", "zipcode": "67321" },
            { "mnname": "Бүрхээр", "zipcode": "67322" },
            { "mnname": "Согоот", "zipcode": "67323" },
            { "mnname": "Уранхайрхан буюу Ренчинжугнай", "zipcode": "67325" },
            { "mnname": "Халбан", "zipcode": "67327" },
            { "mnname": "Зуун мод", "zipcode": "67329" },
            { "mnname": "Дэлгэрхаан", "zipcode": "67331" },
            { "mnname": "Цахир", "zipcode": "68271" },
            { "mnname": "Цахир", "zipcode": "68291" },
            { "mnname": "Улаан толгой", "zipcode": "74071" },
            { "mnname": "Цэцэг гол", "zipcode": "74073" },
            { "mnname": "Давст", "zipcode": "74077" }
          ]
        },
        {
          "mnname": "Хатгал сум",
          "zipcode": "67340",
          "sub_items": [{ "mnname": "Алагцар", "zipcode": "67341" }]
        }
      ]
    },
    {
      "stat": "province",
      "mnname": "Завхан",
      "name": "Zavkhan",
      "year_established": 1931,
      "area": 82455.66,
      "population": 72823,
      "density": 0.88,
      "zipcode": "81000",
      "capital": "Uliastai",
      "capitalmn": "Улиастай",
      "sub_items": [
        {
          "mnname": "Их-Уул",
          "zipcode": "81010",
          "sub_items": [
            { "mnname": "Хуягт", "zipcode": "81011" },
            { "mnname": "Хонгор", "zipcode": "81013" },
            { "mnname": "Цэцүүх", "zipcode": "81015" },
            { "mnname": "Баян-Ухаа", "zipcode": "81017" },
            { "mnname": "Үржил", "zipcode": "81019" },
            { "mnname": "Зарт", "zipcode": "81021" }
          ]
        },
        {
          "mnname": "Тосонцэнгэл",
          "zipcode": "81030",
          "sub_items": [
            { "mnname": "Хайрхан", "zipcode": "81031" },
            { "mnname": "Улаан толгой", "zipcode": "81033" },
            { "mnname": "Рашаант", "zipcode": "81035" },
            { "mnname": "Оргих", "zipcode": "81037" },
            { "mnname": "Идэр", "zipcode": "81039" },
            { "mnname": "Дархан-Уул", "zipcode": "81041" },
            { "mnname": "Баян-Улаан", "zipcode": "81043" }
          ]
        },
        {
          "mnname": "Тэлмэн",
          "zipcode": "81050",
          "sub_items": [
            { "mnname": "Нуур", "zipcode": "81051" },
            { "mnname": "Баянтэгш", "zipcode": "81053" },
            { "mnname": "Баян Айраг", "zipcode": "81055" },
            { "mnname": "Өгөөмөр", "zipcode": "81057" },
            { "mnname": "Өвөгдий", "zipcode": "81058" },
            { "mnname": "Шургах", "zipcode": "81059" }
          ]
        },
        {
          "mnname": "Идэр",
          "zipcode": "81060",
          "sub_items": [
            { "mnname": "Мануустай", "zipcode": "81061" },
            { "mnname": "Дархан-Уул", "zipcode": "81063" },
            { "mnname": "Цэцэрлэг", "zipcode": "81065" },
            { "mnname": "Загастай", "zipcode": "81067" }
          ]
        },
        {
          "mnname": "Отгон",
          "zipcode": "81070",
          "sub_items": [
            { "mnname": "Баянбулаг", "zipcode": "81071" },
            { "mnname": "Буянт", "zipcode": "81073" },
            { "mnname": "Хужирт", "zipcode": "81075" },
            { "mnname": "Соёл", "zipcode": "81077" },
            { "mnname": "Онц", "zipcode": "81079" },
            { "mnname": "Бадрал", "zipcode": "81081" }
          ]
        },
        {
          "mnname": "Улиастай сум",
          "zipcode": "81090",
          "sub_items": [
            { "mnname": "Богдын гол", "zipcode": "81091" },
            { "mnname": "Жаргалант", "zipcode": "81093" },
            { "mnname": "Жинст", "zipcode": "81095" },
            { "mnname": "Өлзийт", "zipcode": "81097" },
            { "mnname": "Товцог", "zipcode": "81099" },
            { "mnname": "Чигэстэй", "zipcode": "81101" }
          ]
        },
        {
          "mnname": "Нөмрөг",
          "zipcode": "81110",
          "sub_items": [
            { "mnname": "Нуур", "zipcode": "81111" },
            { "mnname": "Дархан Уул", "zipcode": "81113" },
            { "mnname": "Хөдрөг", "zipcode": "81115" },
            { "mnname": "Хайрхан", "zipcode": "81117" },
            { "mnname": "Баянзүрх", "zipcode": "81119" }
          ]
        },
        {
          "mnname": "Цагаанхайрхан",
          "zipcode": "81120",
          "sub_items": [
            { "mnname": "Цэцэрлэг", "zipcode": "81121" },
            { "mnname": "Онц", "zipcode": "81123" },
            { "mnname": "Баянбулаг", "zipcode": "81125" },
            { "mnname": "Агьт", "zipcode": "81127" }
          ]
        },
        {
          "mnname": "Яруу",
          "zipcode": "81130",
          "sub_items": [
            { "mnname": "Жаргалант", "zipcode": "81131" },
            { "mnname": "Өргөн", "zipcode": "81133" },
            { "mnname": "Чандмань", "zipcode": "81135" },
            { "mnname": "Хэц-улаан", "zipcode": "81137" },
            { "mnname": "Зүйл", "zipcode": "81139" }
          ]
        },
        {
          "mnname": "Шилүүстэй",
          "zipcode": "81140",
          "sub_items": [
            { "mnname": "Сайхан", "zipcode": "81141" },
            { "mnname": "Чандмань", "zipcode": "81143" },
            { "mnname": "Баян-Улаан", "zipcode": "81145" },
            { "mnname": "Хөгжил", "zipcode": "81147" }
          ]
        },
        {
          "mnname": "Цагаанчулуут",
          "zipcode": "81150",
          "sub_items": [
            { "mnname": "Арц", "zipcode": "81151" },
            { "mnname": "Дэлгэр", "zipcode": "81153" },
            { "mnname": "Баянхайрхан", "zipcode": "81155" },
            { "mnname": "Жавцаг", "zipcode": "81157" }
          ]
        },
        {
          "mnname": "Баянтэс",
          "zipcode": "81160",
          "sub_items": [
            { "mnname": "Зайгал", "zipcode": "81161" },
            { "mnname": "Хачиг", "zipcode": "81163" },
            { "mnname": "Жавхлан", "zipcode": "81165" },
            { "mnname": "Бужир", "zipcode": "81167" }
          ]
        },
        {
          "mnname": "Асгат сум",
          "zipcode": "81170",
          "sub_items": [
            { "mnname": "Аргалант", "zipcode": "81171" },
            { "mnname": "Суварга", "zipcode": "81173" },
            { "mnname": "Хайрхан", "zipcode": "81175" }
          ]
        },
        {
          "mnname": "Баянхайрхан",
          "zipcode": "81180",
          "sub_items": [
            { "mnname": "Асгат", "zipcode": "81181" },
            { "mnname": "наран", "zipcode": "81183" },
            { "mnname": "Төөнт", "zipcode": "81185" },
            { "mnname": "Минж", "zipcode": "81187" }
          ]
        },
        {
          "mnname": "Алдархаан",
          "zipcode": "81190",
          "sub_items": [
            { "mnname": "Богдын гол", "zipcode": "81191" },
            { "mnname": "Чигэстэй", "zipcode": "81193" },
            { "mnname": "Алдар", "zipcode": "81195" },
            { "mnname": "Өгөөмөр", "zipcode": "81197" },
            { "mnname": "Аргалант", "zipcode": "81199" },
            { "mnname": "Мандаат", "zipcode": "81201" }
          ]
        },
        {
          "mnname": "Түдэвтэй",
          "zipcode": "81210",
          "sub_items": [
            { "mnname": "Ойгон", "zipcode": "81211" },
            { "mnname": "Аргалант", "zipcode": "81213" },
            { "mnname": "Цорго", "zipcode": "81215" },
            { "mnname": "Баянцагаан", "zipcode": "81217" },
            { "mnname": "Шар нуруу", "zipcode": "81219" }
          ]
        },
        {
          "mnname": "Цэцэн-Уул",
          "zipcode": "81220",
          "sub_items": [
            { "mnname": "Шотой", "zipcode": "81221" },
            { "mnname": "Оройн товгор", "zipcode": "81223" },
            { "mnname": "Сангийн далай", "zipcode": "81225" },
            { "mnname": "Жаргалант", "zipcode": "81227" },
            { "mnname": "Батсуурь", "zipcode": "81229" }
          ]
        },
        {
          "mnname": "Сонгино",
          "zipcode": "81230",
          "sub_items": [
            { "mnname": "Шар нуруу", "zipcode": "81231" },
            { "mnname": "Бор Өндөр", "zipcode": "81233" },
            { "mnname": "Айраг", "zipcode": "81235" },
            { "mnname": "Баян Айраг", "zipcode": "81237" },
            { "mnname": "Тариат", "zipcode": "81239" }
          ]
        },
        {
          "mnname": "Эрдэнэхайрхан",
          "zipcode": "81240",
          "sub_items": [
            { "mnname": "Мөсөн", "zipcode": "81241" },
            { "mnname": "Багануур", "zipcode": "81243" },
            { "mnname": "Алтан", "zipcode": "81245" },
            { "mnname": "Баянзүрх", "zipcode": "81247" },
            { "mnname": "Хайрхан", "zipcode": "81249" }
          ]
        },
        {
          "mnname": "Тэс",
          "zipcode": "81250",
          "sub_items": [
            { "mnname": "Зүр", "zipcode": "81251" },
            { "mnname": "Баян-Уул", "zipcode": "81253" },
            { "mnname": "Нисэг", "zipcode": "81255" },
            { "mnname": "Дооно", "zipcode": "81257" }
          ]
        },
        {
          "mnname": "Сантмаргац",
          "zipcode": "81260",
          "sub_items": [
            { "mnname": "Баян-Улаан", "zipcode": "81261" },
            { "mnname": "Холбоо", "zipcode": "81263" },
            { "mnname": "Баяннуур", "zipcode": "81265" },
            { "mnname": "Баяндавс", "zipcode": "81267" }
          ]
        },
        {
          "mnname": "Завханмандал",
          "zipcode": "81270",
          "sub_items": [
            { "mnname": "Нуга", "zipcode": "81271" },
            { "mnname": "Олонтүрүү", "zipcode": "81273" },
            { "mnname": "Мандал", "zipcode": "81275" },
            { "mnname": "Олонбулаг", "zipcode": "81277" }
          ]
        },
        {
          "mnname": "Дөрвөлжин",
          "zipcode": "81280",
          "sub_items": [
            { "mnname": "Цогт", "zipcode": "81281" },
            { "mnname": "Буга", "zipcode": "81283" },
            { "mnname": "Буурал", "zipcode": "81285" },
            { "mnname": "Таван толгой", "zipcode": "81287" },
            { "mnname": "Онц", "zipcode": "81289" }
          ]
        },
        {
          "mnname": "Ургамал",
          "zipcode": "81290",
          "sub_items": [
            { "mnname": "Нуур зөөхий", "zipcode": "81291" },
            { "mnname": "Хульж", "zipcode": "81293" },
            { "mnname": "Баян-Улаан", "zipcode": "81295" },
            { "mnname": "Төв", "zipcode": "81297" },
            { "mnname": "Тосгуур", "zipcode": "81299" }
          ]
        }
      ]
    },
    {
      "stat": "province",
      "mnname": "Говь-Алтай",
      "name": "Govi-Altai",
      "year_established": 1940,
      "area": 141447.67,
      "population": 57748,
      "density": 0.41,
      "zipcode": "82000",
      "capital": "Altai",
      "capitalmn": "Алтай",
      "sub_items": [
        {
          "mnname": "Дэлгэр",
          "zipcode": "82010",
          "sub_items": [
            { "mnname": "Баян-Өндөр", "zipcode": "82011" },
            { "mnname": "Баянхонгор", "zipcode": "82013" },
            { "mnname": "Гуулин", "zipcode": "82015" },
            { "mnname": "Баянсан", "zipcode": "82017" },
            { "mnname": "Баянбуурал", "zipcode": "82019" }
          ]
        },
        {
          "mnname": "Чандмань",
          "zipcode": "82020",
          "sub_items": [
            { "mnname": "Чандмань-Уул", "zipcode": "82021" },
            { "mnname": "Эрдэнэ-Уул", "zipcode": "82023" },
            { "mnname": "Өлзийбулаг", "zipcode": "82025" },
            { "mnname": "Сэрх-Уул", "zipcode": "82027" }
          ]
        },
        {
          "mnname": "Эрдэнэ",
          "zipcode": "82030",
          "sub_items": [
            { "mnname": "Цагаан-Уул", "zipcode": "82031" },
            { "mnname": "Өлзийт", "zipcode": "82033" },
            { "mnname": "Цэцэг нуур", "zipcode": "82035" },
            { "mnname": "Сангийн далай", "zipcode": "82037" }
          ]
        },
        {
          "mnname": "Бигэр",
          "zipcode": "82040",
          "sub_items": [
            { "mnname": "Хүрэнт", "zipcode": "82041" },
            { "mnname": "Мянгай", "zipcode": "82043" },
            { "mnname": "Уртын гол", "zipcode": "82045" },
            { "mnname": "Олон булаг", "zipcode": "82047" },
            { "mnname": "Буудай", "zipcode": "82049" }
          ]
        },
        {
          "mnname": "Цогт",
          "zipcode": "82050",
          "sub_items": [
            { "mnname": "Гэгээт", "zipcode": "82051" },
            { "mnname": "Далан", "zipcode": "82053" },
            { "mnname": "Баянтоорой", "zipcode": "82055" },
            { "mnname": "Баян-Өндөр", "zipcode": "82057" },
            { "mnname": "Рашаант", "zipcode": "82059" },
            { "mnname": "Төгрөг", "zipcode": "82061" },
            { "mnname": "Баян-Улаан", "zipcode": "82063" }
          ]
        },
        {
          "mnname": "Тайшир",
          "zipcode": "82070",
          "sub_items": [
            { "mnname": "Хуримт", "zipcode": "82071" },
            { "mnname": "Галуут", "zipcode": "82073" },
            { "mnname": "Далан", "zipcode": "82075" }
          ]
        },
        {
          "mnname": "Есөнбулаг",
          "zipcode": "82080",
          "sub_items": [
            { "mnname": "Баянхайрхан", "zipcode": "82081" },
            { "mnname": "Жаргалант", "zipcode": "82083" },
            { "mnname": "Наран", "zipcode": "82085" },
            { "mnname": "Баяншанд", "zipcode": "82087" },
            { "mnname": "Рашаант", "zipcode": "82089" },
            { "mnname": "Харзат", "zipcode": "82091" },
            { "mnname": "Галуут", "zipcode": "82093" },
            { "mnname": "Далай", "zipcode": "82095" },
            { "mnname": "Түмэн", "zipcode": "82097" },
            { "mnname": "Оргил", "zipcode": "82099" }
          ]
        },
        {
          "mnname": "Халиун",
          "zipcode": "82100",
          "sub_items": [
            { "mnname": "Чацран", "zipcode": "82101" },
            { "mnname": "Гүүбариач", "zipcode": "82103" },
            { "mnname": "Сүүж", "zipcode": "82105" },
            { "mnname": "Олонбулаг", "zipcode": "82107" }
          ]
        },
        {
          "mnname": "Жаргалан",
          "zipcode": "82110",
          "sub_items": [
            { "mnname": "Завхан гол", "zipcode": "82111" },
            { "mnname": "Бүрэн", "zipcode": "82113" },
            { "mnname": "Тээл", "zipcode": "82115" }
          ]
        },
        {
          "mnname": "Цээл",
          "zipcode": "82120",
          "sub_items": [
            { "mnname": "Бүрэн", "zipcode": "82121" },
            { "mnname": "Жаргалт", "zipcode": "82123" },
            { "mnname": "Баянгол", "zipcode": "82125" },
            { "mnname": "Дэрстэй", "zipcode": "82127" }
          ]
        },
        {
          "mnname": "Алтай",
          "zipcode": "82130",
          "sub_items": [
            { "mnname": "Баянцагаан", "zipcode": "82131" },
            { "mnname": "Урт", "zipcode": "82133" },
            { "mnname": "Бадрал", "zipcode": "82135" },
            { "mnname": "Баян-Овоо", "zipcode": "82137" }
          ]
        },
        {
          "mnname": "Шарга",
          "zipcode": "82140",
          "sub_items": [
            { "mnname": "Улаан туг", "zipcode": "82141" },
            { "mnname": "Сондуулт", "zipcode": "82143" },
            { "mnname": "Баянгол", "zipcode": "82145" },
            { "mnname": "Хамтын хүч", "zipcode": "82147" }
          ]
        },
        {
          "mnname": "Баян-Уул",
          "zipcode": "82150",
          "sub_items": [
            { "mnname": "Чандманьхайрхан", "zipcode": "82151" },
            { "mnname": "Баянбогд", "zipcode": "82153" },
            { "mnname": "Алтангадас", "zipcode": "82155" },
            { "mnname": "Баянхайрхан", "zipcode": "82157" },
            { "mnname": "Хүйсийн-говь", "zipcode": "82159" },
            { "mnname": "Баянговь", "zipcode": "82161" },
            { "mnname": "Завхан-гол", "zipcode": "82163" },
            { "mnname": "Сайн-уст", "zipcode": "82165" },
            { "mnname": "Хүйсийн-говь", "zipcode": "82167" },
            { "mnname": "Цоохор-нуур", "zipcode": "82169" }
          ]
        },
        {
          "mnname": "Төгрөг",
          "zipcode": "82170",
          "sub_items": [
            { "mnname": "Хүрэнгол", "zipcode": "82171" },
            { "mnname": "Тунгалаг", "zipcode": "82173" },
            { "mnname": "Төгрөгийн эх", "zipcode": "82175" },
            { "mnname": "Цагаанхайрхан", "zipcode": "82177" },
            { "mnname": "Мааньт", "zipcode": "82179" }
          ]
        },
        {
          "mnname": "Хөхморьт",
          "zipcode": "82180",
          "sub_items": [
            { "mnname": "Сангийн далай", "zipcode": "82181" },
            { "mnname": "Завхан гол", "zipcode": "82183" },
            { "mnname": "Сайн-Уст", "zipcode": "82185" },
            { "mnname": "Хүйсийн говь", "zipcode": "82187" },
            { "mnname": "Цоохор нуур", "zipcode": "82189" }
          ]
        },
        {
          "mnname": "Дарви",
          "zipcode": "82190",
          "sub_items": [
            { "mnname": "Жавхлан", "zipcode": "82191" },
            { "mnname": "Хужирт", "zipcode": "82193" },
            { "mnname": "Үйлдвэр", "zipcode": "82195" },
            { "mnname": "Ихэс нуур", "zipcode": "82197" }
          ]
        },
        {
          "mnname": "Бугат",
          "zipcode": "82200",
          "sub_items": [
            { "mnname": "Гаханч", "zipcode": "82201" },
            { "mnname": "Баянгол", "zipcode": "82203" },
            { "mnname": "Сүж", "zipcode": "82205" },
            { "mnname": "Биж", "zipcode": "82207" },
            { "mnname": "Ферм", "zipcode": "82209" }
          ]
        },
        {
          "mnname": "Тонхил",
          "zipcode": "82210",
          "sub_items": [
            { "mnname": "Бүс-Уул", "zipcode": "82211" },
            { "mnname": "Тамч", "zipcode": "82213" },
            { "mnname": "Алтайн-Оргил", "zipcode": "82215" },
            { "mnname": "Зүйл", "zipcode": "82217" },
            { "mnname": "Алтансоёмбо", "zipcode": "82219" }
          ]
        }
      ]
    },
    {
      "stat": "province",
      "mnname": "Баян-Өлгий",
      "name": "Bayan-Ölgii",
      "year_established": 1940,
      "area": 45704.89,
      "population": 108530,
      "density": 2.37,
      "zipcode": "83000",
      "capital": "Ulgii",
      "capitalmn": "Өлгий",
      "sub_items": [
        {
          "mnname": "Булган",
          "zipcode": "83010",
          "sub_items": [
            { "mnname": "Улаан хус", "zipcode": "83011" },
            { "mnname": "Сөнхөл", "zipcode": "83013" },
            { "mnname": "Булган", "zipcode": "83015" },
            { "mnname": "Улаагчин", "zipcode": "83017" },
            { "mnname": "Хужирт", "zipcode": "83019" },
            { "mnname": "Жаргалант", "zipcode": "83021" },
            { "mnname": "Сайхан", "zipcode": "83023" }
          ]
        },
        {
          "mnname": "Баяннуур",
          "zipcode": "83030",
          "sub_items": [
            { "mnname": "Шар цэхээ", "zipcode": "83031" },
            { "mnname": "Баяннуур", "zipcode": "83033" },
            { "mnname": "Цэцэгт", "zipcode": "83035" },
            { "mnname": "Цагаан Арал", "zipcode": "83037" },
            { "mnname": "Цул-Улаан", "zipcode": "83039" }
          ]
        },
        {
          "mnname": "Алтанцөгц",
          "zipcode": "83040",
          "sub_items": [
            { "mnname": "Цагаантүнгэ", "zipcode": "83041" },
            { "mnname": "Улаанхаргана", "zipcode": "83043" },
            { "mnname": "Баянбулаг", "zipcode": "83045" },
            { "mnname": "Хаш", "zipcode": "83047" }
          ]
        },
        {
          "mnname": "Бугат сум",
          "zipcode": "83050",
          "sub_items": [
            { "mnname": "Хатуу", "zipcode": "83051" },
            { "mnname": "Бугат /төв/", "zipcode": "83053" },
            { "mnname": "Улаантолгой", "zipcode": "83055" },
            { "mnname": "Бугын гол", "zipcode": "83057" },
            { "mnname": "Их булан", "zipcode": "83059" },
            { "mnname": "Их булан", "zipcode": "83059" }
          ]
        },
        {
          "mnname": "Дэлүүн",
          "zipcode": "83060",
          "sub_items": [
            { "mnname": "Төвийн баг", "zipcode": "83061" },
            { "mnname": "Бүргэд", "zipcode": "83063" },
            { "mnname": "Хөхтолгой", "zipcode": "83065" },
            { "mnname": "Шинэ айл", "zipcode": "83066" },
            { "mnname": "Хүйтэн нуур", "zipcode": "83067" },
            { "mnname": "Бугат", "zipcode": "83069" },
            { "mnname": "Хар-Уул", "zipcode": "83071" },
            { "mnname": "Ганц мод", "zipcode": "83073" },
            { "mnname": "Ангирлаг буюу Саралахаз", "zipcode": "83075" },
            { "mnname": "Чихэртэй", "zipcode": "83077" },
            { "mnname": "Хүйтэн буйр", "zipcode": "83078" },
            { "mnname": "Тал нуур", "zipcode": "83079" }
          ]
        },
        {
          "mnname": "Толбо",
          "zipcode": "83080",
          "sub_items": [
            { "mnname": "Бураат", "zipcode": "83081" },
            { "mnname": "Дөрөө нуур", "zipcode": "83083" },
            { "mnname": "Хош", "zipcode": "83085" },
            { "mnname": "Хөх толгой /төв/", "zipcode": "83087" },
            { "mnname": "Толбо нуур", "zipcode": "83089" },
            { "mnname": "Хонгор өлөн", "zipcode": "83091" }
          ]
        },
        {
          "mnname": "Ногооннуур",
          "zipcode": "83100",
          "sub_items": [
            { "mnname": "Ховд", "zipcode": "83101" },
            { "mnname": "Чихтэй", "zipcode": "83103" },
            { "mnname": "Хосхаргай", "zipcode": "83105" },
            { "mnname": "Ямаат", "zipcode": "83107" },
            { "mnname": "Бахлаг", "zipcode": "83109" },
            { "mnname": "Асгат", "zipcode": "83111" },
            { "mnname": "Улаанчулуун", "zipcode": "83112" },
            { "mnname": "Цагааннуур тосгон", "zipcode": "83113" },
            { "mnname": "Хызылхайын", "zipcode": "83115" }
          ]
        },
        {
          "mnname": "Өлгий сум",
          "zipcode": "83120",
          "sub_items": [
            { "mnname": "Хуст арал", "zipcode": "83121" },
            { "mnname": "Цагаан эрэг", "zipcode": "83123" },
            { "mnname": "Бөхөн-уул", "zipcode": "83125" },
            { "mnname": "Их Булан", "zipcode": "83127" },
            { "mnname": "Ховд гол", "zipcode": "83129" },
            { "mnname": "Ах хуст тау", "zipcode": "83131" },
            { "mnname": "Хөх толгой", "zipcode": "83133" },
            { "mnname": "Харасай", "zipcode": "83134" },
            { "mnname": "Хотгор", "zipcode": "83135" },
            { "mnname": "Бүркит", "zipcode": "83136" },
            { "mnname": "Хөх хад", "zipcode": "83137" },
            { "mnname": "Жасыл", "zipcode": "83138" },
            { "mnname": "Жана ауыл", "zipcode": "83139" }
          ]
        },
        {
          "mnname": "Буянт",
          "zipcode": "83140",
          "sub_items": [
            { "mnname": "Хөх эрэг", "zipcode": "83141" },
            { "mnname": "Хөлцөөт", "zipcode": "83143" },
            { "mnname": "Өмнөгол", "zipcode": "83145" },
            { "mnname": "Шар тохойт", "zipcode": "83147" }
          ]
        },
        {
          "mnname": "Алтай",
          "zipcode": "83150",
          "sub_items": [
            { "mnname": "Улаан хад", "zipcode": "83151" },
            { "mnname": "Борбургас", "zipcode": "83152" },
            { "mnname": "Бардам", "zipcode": "83153" },
            { "mnname": "Чихэртэй", "zipcode": "83155" },
            { "mnname": "Хар нуур", "zipcode": "83157" }
          ]
        },
        {
          "mnname": "Сагсай",
          "zipcode": "83160",
          "sub_items": [
            { "mnname": "Хол Агаш", "zipcode": "83161" },
            { "mnname": "Ямаат", "zipcode": "83163" },
            { "mnname": "Өмнө гол", "zipcode": "83164" },
            { "mnname": "Аххорим", "zipcode": "83165" },
            { "mnname": "Уужим", "zipcode": "83167" },
            { "mnname": "Даян", "zipcode": "83168" },
            { "mnname": "Хаг", "zipcode": "83169" }
          ]
        },
        {
          "mnname": "Улаанхус",
          "zipcode": "83170",
          "sub_items": [
            { "mnname": "Билүү-1", "zipcode": "83171" },
            { "mnname": "Согоог", "zipcode": "83173" },
            { "mnname": "Казыл жар", "zipcode": "83174" },
            { "mnname": "Баянзүрх", "zipcode": "83175" },
            { "mnname": "Хөх хөтөл", "zipcode": "83177" },
            { "mnname": "Монгол гол", "zipcode": "83178" },
            { "mnname": "Монгол гол", "zipcode": "83178" },
            { "mnname": "Хулжаа", "zipcode": "83179" },
            { "mnname": "Билүү-2", "zipcode": "83181" },
            { "mnname": "Улаан эрэг", "zipcode": "83182" },
            { "mnname": "Улаан эрэг", "zipcode": "83182" },
            { "mnname": "Даян", "zipcode": "83183" },
            { "mnname": "Хөх адыр", "zipcode": "83184" },
            { "mnname": "Хөх адыр", "zipcode": "83184" },
            { "mnname": "Их - Ойгор", "zipcode": "83185" }
          ]
        },
        {
          "mnname": "Цэнгэл",
          "zipcode": "83190",
          "sub_items": [
            { "mnname": "Харганат", "zipcode": "83191" },
            { "mnname": "Хөшөөт", "zipcode": "83193" },
            { "mnname": "Цагаантүнгэ", "zipcode": "83195" },
            { "mnname": "Борбургас", "zipcode": "83197" },
            { "mnname": "Загаст нуур", "zipcode": "83199" },
            { "mnname": "Цагаан гол", "zipcode": "83201" },
            { "mnname": "Шар говь", "zipcode": "83203" },
            { "mnname": "Долоон гаталга", "zipcode": "83205" },
            { "mnname": "Партизан", "zipcode": "83207" }
          ]
        }
      ]
    },
    {
      "stat": "province",
      "mnname": "Ховд",
      "name": "Khovd",
      "year_established": 1931,
      "area": 76060.38,
      "population": 89712,
      "density": 1.18,
      "zipcode": "84000",
      "capital": "Khovd",
      "capitalmn": "Ховд",
      "sub_items": [
        {
          "mnname": "Дарви",
          "zipcode": "84010",
          "sub_items": [
            { "mnname": "Булаг", "zipcode": "84011" },
            { "mnname": "Дэлгэр", "zipcode": "84013" },
            { "mnname": "Булган", "zipcode": "84015" },
            { "mnname": "Мөнгөн-аяга", "zipcode": "84017" },
            { "mnname": "Мөрөн", "zipcode": "84019" }
          ]
        },
        {
          "mnname": "Дөргөн",
          "zipcode": "84020",
          "sub_items": [
            { "mnname": "Аргалант", "zipcode": "84021" },
            { "mnname": "Сээр", "zipcode": "84023" },
            { "mnname": "Өгөөмөр", "zipcode": "84025" },
            { "mnname": "Агваш", "zipcode": "84027" }
          ]
        },
        {
          "mnname": "Чандмань",
          "zipcode": "84030",
          "sub_items": [
            { "mnname": "Талын булаг", "zipcode": "84031" },
            { "mnname": "Тахилт", "zipcode": "84033" },
            { "mnname": "Жаргалант", "zipcode": "84035" },
            { "mnname": "Урд гол", "zipcode": "84037" },
            { "mnname": "Баянхайрхан", "zipcode": "84039" },
            { "mnname": "Сүлжээ", "zipcode": "84041" },
            { "mnname": "Талын булаг", "zipcode": "84043" },
            { "mnname": "Жаргалант", "zipcode": "84045" },
            { "mnname": "Урд гол", "zipcode": "84047" },
            { "mnname": "Баянхайрхан", "zipcode": "84049" }
          ]
        },
        {
          "mnname": "Цэцэг",
          "zipcode": "84050",
          "sub_items": [
            { "mnname": "Хажинга", "zipcode": "84051" },
            { "mnname": "Хөшөөт", "zipcode": "84053" },
            { "mnname": "Цэцэг нуур", "zipcode": "84055" },
            { "mnname": "Баянгол", "zipcode": "84057" },
            { "mnname": "Баян-Овоо", "zipcode": "84059" }
          ]
        },
        {
          "mnname": "Зэрэг",
          "zipcode": "84060",
          "sub_items": [
            { "mnname": "Эхэн", "zipcode": "84061" },
            { "mnname": "Бураа", "zipcode": "84063" },
            { "mnname": "Хөндлөн", "zipcode": "84065" },
            { "mnname": "Бургасан", "zipcode": "84067" },
            { "mnname": "Гүвээ", "zipcode": "84069" }
          ]
        },
        {
          "mnname": "Мөст",
          "zipcode": "84070",
          "sub_items": [
            { "mnname": "Улаантолгой", "zipcode": "84071" },
            { "mnname": "Цэцэг гол", "zipcode": "84073" },
            { "mnname": "Хужирт", "zipcode": "84075" },
            { "mnname": "Давст", "zipcode": "84077" },
            { "mnname": "Баянхайрхан", "zipcode": "84079" }
          ]
        },
        {
          "mnname": "Алтай",
          "zipcode": "84080",
          "sub_items": [
            { "mnname": "Барлаг", "zipcode": "84081" },
            { "mnname": "Бодонч", "zipcode": "84083" },
            { "mnname": "Алтангадас", "zipcode": "84085" },
            { "mnname": "Тахилт", "zipcode": "84087" }
          ]
        },
        {
          "mnname": "Буянт",
          "zipcode": "84090",
          "sub_items": [
            { "mnname": "Нарийн гол", "zipcode": "84091" },
            { "mnname": "Цагаан бургас", "zipcode": "84093" },
            { "mnname": "Норжинхайрхан", "zipcode": "84095" },
            { "mnname": "Наранхайрхан", "zipcode": "84097" },
            { "mnname": "Цагаан эрэг", "zipcode": "84099" }
          ]
        },
        {
          "mnname": "Мянгад",
          "zipcode": "84100",
          "sub_items": [
            { "mnname": "Баянбулаг", "zipcode": "84101" },
            { "mnname": "Цагаан булан", "zipcode": "84103" },
            { "mnname": "Баян хошуу", "zipcode": "84105" },
            { "mnname": "Чацаргант", "zipcode": "84107" },
            { "mnname": "Гахайт", "zipcode": "84109" }
          ]
        },
        {
          "mnname": "Манхан",
          "zipcode": "84110",
          "sub_items": [
            { "mnname": "Зэрэг гол", "zipcode": "84111" },
            { "mnname": "Баянгол", "zipcode": "84113" },
            { "mnname": "Төгрөг гол", "zipcode": "84115" },
            { "mnname": "Ботгон", "zipcode": "84117" },
            { "mnname": "Тахилт", "zipcode": "84119" },
            { "mnname": "Улаан хүрээ", "zipcode": "84121" },
            { "mnname": "Хөх-үзүүр", "zipcode": "84123" },
            { "mnname": "Жаргалан", "zipcode": "84125" },
            { "mnname": "Улиаст", "zipcode": "84127" },
            { "mnname": "Цагаантүнгэ", "zipcode": "84129" }
          ]
        },
        {
          "mnname": "Үенч",
          "zipcode": "84130",
          "sub_items": [
            { "mnname": "Нарийн гол", "zipcode": "84131" },
            { "mnname": "Хөх үзүүр", "zipcode": "84133" },
            { "mnname": "Улиаст", "zipcode": "84135" },
            { "mnname": "Жаргалан", "zipcode": "84137" },
            { "mnname": "Цагаантүнгэ", "zipcode": "84139" }
          ]
        },
        {
          "mnname": "Жаргалант сум",
          "zipcode": "84140",
          "sub_items": [
            { "mnname": "Цамбагарав", "zipcode": "84141" },
            { "mnname": "Хайрхан", "zipcode": "84143" },
            { "mnname": "Тахилт", "zipcode": "84145" },
            { "mnname": "Рашаант", "zipcode": "84147" },
            { "mnname": "Наран", "zipcode": "84149" },
            { "mnname": "Цамбагарав", "zipcode": "84151" },
            { "mnname": "Хайрхан", "zipcode": "84153" },
            { "mnname": "Тахилт", "zipcode": "84155" },
            { "mnname": "Рашаант", "zipcode": "84157" },
            { "mnname": "Наран", "zipcode": "84159" },
            { "mnname": "Магсаржав", "zipcode": "84161" },
            { "mnname": "Жаргалан", "zipcode": "84163" },
            { "mnname": "Буянт", "zipcode": "84165" },
            { "mnname": "Бугат", "zipcode": "84167" },
            { "mnname": "Бичигт", "zipcode": "84169" }
          ]
        },
        {
          "mnname": "Ховд",
          "zipcode": "84170",
          "sub_items": [
            { "mnname": "Баруун салаа", "zipcode": "84171" },
            { "mnname": "Улаанбураа", "zipcode": "84173" },
            { "mnname": "Дунд ус", "zipcode": "84175" },
            { "mnname": "Баянбулаг", "zipcode": "84177" },
            { "mnname": "Цагаанбургас", "zipcode": "84179" }
          ]
        },
        {
          "mnname": "Эрдэнэбүрэн",
          "zipcode": "84180",
          "sub_items": [
            { "mnname": "Хар ус", "zipcode": "84181" },
            { "mnname": "Баянгол", "zipcode": "84183" },
            { "mnname": "Шураг", "zipcode": "84185" },
            { "mnname": "Хонгио", "zipcode": "84187" },
            { "mnname": "Намарзан", "zipcode": "84189" }
          ]
        },
        {
          "mnname": "Мөнххайрхан",
          "zipcode": "84190",
          "sub_items": [
            { "mnname": "Алаг", "zipcode": "84191" },
            { "mnname": "Сэнхэр", "zipcode": "84193" },
            { "mnname": "Борт", "zipcode": "84195" },
            { "mnname": "Хаг", "zipcode": "84197" }
          ]
        },
        {
          "mnname": "Дуут",
          "zipcode": "84200",
          "sub_items": [
            { "mnname": "Цагаан бургас", "zipcode": "84201" },
            { "mnname": "Босго", "zipcode": "84203" },
            { "mnname": "Хөх бэлчир", "zipcode": "84205" },
            { "mnname": "Шивэр", "zipcode": "84207" }
          ]
        },
        {
          "mnname": "Булган",
          "zipcode": "84210",
          "sub_items": [
            { "mnname": "Бүрэнхайрхан", "zipcode": "84211" },
            { "mnname": "Далт", "zipcode": "84213" },
            { "mnname": "Баянсудал", "zipcode": "84215" },
            { "mnname": "Баянгол", "zipcode": "84217" },
            { "mnname": "Байтаг", "zipcode": "84219" },
            { "mnname": "Алагтолгой", "zipcode": "84221" },
            { "mnname": "Барлаг", "zipcode": "84281" }
          ]
        }
      ]
    },
    {
      "stat": "province",
      "mnname": "Увс",
      "name": "Uvs",
      "year_established": 1931,
      "area": 69585.39,
      "population": 83223,
      "density": 1.2,
      "zipcode": "85000",
      "capital": "Ulaangom",
      "capitalmn": "Улаангом",
      "sub_items": [
        {
          "mnname": "Зүүнхангай",
          "zipcode": "85010",
          "sub_items": [
            { "mnname": "Даланбулаг", "zipcode": "85011" },
            { "mnname": "Хайрхан", "zipcode": "85013" },
            { "mnname": "Жаргалант", "zipcode": "85015" },
            { "mnname": "Баянгол", "zipcode": "85017" }
          ]
        },
        {
          "mnname": "Баруунтуруун",
          "zipcode": "85020",
          "sub_items": [
            { "mnname": "Зүүнтуруун", "zipcode": "85021" },
            { "mnname": "Шанд", "zipcode": "85023" },
            { "mnname": "Баян айраг", "zipcode": "85025" },
            { "mnname": "Туруун", "zipcode": "85027" }
          ]
        },
        {
          "mnname": "Өндөрхангай",
          "zipcode": "85030",
          "sub_items": [
            { "mnname": "Цалуу", "zipcode": "85031" },
            { "mnname": "Батсайхан", "zipcode": "85033" },
            { "mnname": "Цэцэрлэг", "zipcode": "85035" },
            { "mnname": "Цагаан нуур", "zipcode": "85037" },
            { "mnname": "Жаргалант", "zipcode": "85039" }
          ]
        },
        {
          "mnname": "Зүүнговь",
          "zipcode": "85040",
          "sub_items": [
            { "mnname": "Тохой", "zipcode": "85041" },
            { "mnname": "Баяннуур", "zipcode": "85043" },
            { "mnname": "Зэл", "zipcode": "85045" },
            { "mnname": "Өгөөмөр", "zipcode": "85047" },
            { "mnname": "Суварга", "zipcode": "85049" }
          ]
        },
        {
          "mnname": "Цагаанхайрхан",
          "zipcode": "85050",
          "sub_items": [
            { "mnname": "Даланхуруу", "zipcode": "85051" },
            { "mnname": "Ар булаг", "zipcode": "85053" },
            { "mnname": "Хунт", "zipcode": "85055" },
            { "mnname": "Хулж", "zipcode": "85057" }
          ]
        },
        {
          "mnname": "Тэс сум",
          "zipcode": "85060",
          "sub_items": [
            { "mnname": "Нуур эхэн", "zipcode": "85061" },
            { "mnname": "Булгийн өндөр", "zipcode": "85063" },
            { "mnname": "Цагаан толгой", "zipcode": "85065" },
            { "mnname": "Нурагт", "zipcode": "85067" },
            { "mnname": "Тооромт", "zipcode": "85069" },
            { "mnname": "Ендөрт", "zipcode": "85071" },
            { "mnname": "Ханжид", "zipcode": "85073" },
            { "mnname": "Суварга", "zipcode": "85075" },
            { "mnname": "Баян-Овоо", "zipcode": "85077" },
            { "mnname": "Нуур", "zipcode": "85079" }
          ]
        },
        {
          "mnname": "Хяргас",
          "zipcode": "85080",
          "sub_items": [
            { "mnname": "Хангай", "zipcode": "85081" },
            { "mnname": "Бугат", "zipcode": "85083" },
            { "mnname": "Дэлгэр", "zipcode": "85085" },
            { "mnname": "Хайрхан", "zipcode": "85087" }
          ]
        },
        {
          "mnname": "Малчин",
          "zipcode": "85090",
          "sub_items": [
            { "mnname": "Баян-Эрдэнэ", "zipcode": "85091" },
            { "mnname": "Цалгар", "zipcode": "85093" },
            { "mnname": "Баянмандал", "zipcode": "85095" },
            { "mnname": "Баянхайрхан", "zipcode": "85097" }
          ]
        },
        {
          "mnname": "Завхан",
          "zipcode": "85100",
          "sub_items": [
            { "mnname": "Айрагнуур", "zipcode": "85103" },
            { "mnname": "Хармагт", "zipcode": "85105" },
            { "mnname": "Шар булаг", "zipcode": "85107" },
            { "mnname": "Хяргас нуур", "zipcode": "85109" }
          ]
        },
        {
          "mnname": "Наранбулаг",
          "zipcode": "85110",
          "sub_items": [
            { "mnname": "Хужирт", "zipcode": "85111" },
            { "mnname": "Гүнбүрд", "zipcode": "85113" },
            { "mnname": "Алдар", "zipcode": "85115" },
            { "mnname": "Улаан үзүүр", "zipcode": "85117" }
          ]
        },
        {
          "mnname": "Давст",
          "zipcode": "85120",
          "sub_items": [
            { "mnname": "Торхилог", "zipcode": "85121" },
            { "mnname": "Зүүн хөвөө", "zipcode": "85123" },
            { "mnname": "Хандгайт", "zipcode": "85125" }
          ]
        },
        {
          "mnname": "Тариалан",
          "zipcode": "85130",
          "sub_items": [
            { "mnname": "Хархираа", "zipcode": "85131" },
            { "mnname": "Тарвагатай", "zipcode": "85133" },
            { "mnname": "Бургастай", "zipcode": "85135" },
            { "mnname": "Хөхөө", "zipcode": "85137" },
            { "mnname": "Толь", "zipcode": "85139" },
            { "mnname": "Мянган", "zipcode": "85141" }
          ]
        },
        {
          "mnname": "Өлгий",
          "zipcode": "85150",
          "sub_items": [
            { "mnname": "Хулст нуур", "zipcode": "85151" },
            { "mnname": "Хөдөлмөр", "zipcode": "85153" },
            { "mnname": "Чаргат", "zipcode": "85155" },
            { "mnname": "Өлгий нуур", "zipcode": "85157" }
          ]
        },
        {
          "mnname": "Улаангом",
          "zipcode": "85160",
          "sub_items": [
            { "mnname": "1-р баг", "zipcode": "85161" },
            { "mnname": "2-р баг", "zipcode": "85163" },
            { "mnname": "3-р баг", "zipcode": "85165" },
            { "mnname": "4-р баг", "zipcode": "85167" },
            { "mnname": "5-р баг", "zipcode": "85169" },
            { "mnname": "6-р баг", "zipcode": "85171" },
            { "mnname": "7-р баг", "zipcode": "85173" },
            { "mnname": "8-р баг", "zipcode": "85175" },
            { "mnname": "9-р баг", "zipcode": "85177" },
            { "mnname": "10-р баг", "zipcode": "85179" },
            { "mnname": "11-р баг", "zipcode": "85181" },
            { "mnname": "12-р баг", "zipcode": "85183" }
          ]
        },
        {
          "mnname": "Сагил",
          "zipcode": "85190",
          "sub_items": [
            { "mnname": "Боршоо", "zipcode": "85191" },
            { "mnname": "Өндөр мод", "zipcode": "85193" },
            { "mnname": "Хар мод", "zipcode": "85195" },
            { "mnname": "Баянзүрх", "zipcode": "85197" },
            { "mnname": "Үүрэг нуур", "zipcode": "85199" }
          ]
        },
        {
          "mnname": "Түргэн",
          "zipcode": "85200",
          "sub_items": [
            { "mnname": "Баянхайрхан", "zipcode": "85201" },
            { "mnname": "Эрдэнэхайрхан", "zipcode": "85203" },
            { "mnname": "Рашаант", "zipcode": "85205" }
          ]
        },
        {
          "mnname": "Өмнөговь",
          "zipcode": "85210",
          "sub_items": [
            { "mnname": "Холбоо", "zipcode": "85211" },
            { "mnname": "Намир", "zipcode": "85213" },
            { "mnname": "Баянгол", "zipcode": "85215" },
            { "mnname": "Орлого", "zipcode": "85217" },
            { "mnname": "Улиаст", "zipcode": "85219" }
          ]
        },
        {
          "mnname": "Бөхмөрөн",
          "zipcode": "85220",
          "sub_items": [
            { "mnname": "Хар алтад", "zipcode": "85221" },
            { "mnname": "Байшинт", "zipcode": "85223" },
            { "mnname": "3 жигэртэй", "zipcode": "85225" }
          ]
        },
        {
          "mnname": "Ховд",
          "zipcode": "85230",
          "sub_items": [
            { "mnname": "Шивэр", "zipcode": "85231" },
            { "mnname": "Ховд", "zipcode": "85233" },
            { "mnname": "Халиунбулаг", "zipcode": "85235" },
            { "mnname": "Ачит", "zipcode": "85237" }
          ]
        }
      ]
    }
  ]
}
